{
  "type": "FeatureCollection",
  "features": [
    {
      "type": "Feature",
      "properties": {
        "name": "Trace GPX",
        "coordinateProperties": [
          {
            "highway": "track",
            "surface": "asphalt"
          },
          {
            "highway": "track",
            "surface": "asphalt"
          },
          {
            "highway": "path",
            "surface": "grass"
          },
          {
            "highway": "path",
            "surface": "grass"
          },
          {
            "highway": "path",
            "surface": "grass"
          },
          {
            "highway": "path",
            "surface": "grass"
          },
          {
            "highway": "path",
            "surface": "ground"
          },
          {
            "highway": "path",
            "surface": "ground"
          },
          {
            "highway": "path",
            "surface": "ground"
          },
          {
            "highway": "path",
            "surface": "ground"
          },
          {
            "highway": "path",
            "surface": "ground"
          },
          {
            "highway": "path",
            "surface": "ground"
          },
          {
            "highway": "path",
            "surface": "ground"
          },
          {
            "highway": "track",
            "surface": "asphalt"
          },
          {
            "highway": "track",
            "surface": "asphalt"
          },
          {
            "highway": "track",
            "surface": "asphalt"
          },
          {
            "highway": "track",
            "surface": "asphalt"
          },
          {
            "highway": "track",
            "surface": "asphalt"
          },
          {
            "highway": "track",
            "surface": "asphalt"
          },
          {
            "highway": "track",
            "surface": "asphalt"
          },
          {
            "highway": "track",
            "surface": "asphalt"
          },
          {
            "highway": "track",
            "surface": "asphalt"
          },
          {
            "highway": "track",
            "surface": "asphalt"
          },
          {
            "highway": "track",
            "surface": "asphalt"
          },
          {
            "highway": "track",
            "surface": "asphalt"
          },
          {
            "highway": "track",
            "surface": "asphalt"
          },
          {
            "highway": "track",
            "surface": "asphalt"
          },
          {
            "highway": "track",
            "surface": "asphalt"
          },
          {
            "highway": "track",
            "surface": "asphalt"
          },
          {
            "highway": "path",
            "surface": "grass"
          },
          {
            "highway": "path",
            "surface": "grass"
          },
          {
            "highway": "path",
            "surface": "grass"
          },
          {
            "highway": "path",
            "surface": "grass"
          },
          {
            "highway": "path",
            "surface": "grass"
          },
          {
            "highway": "path",
            "surface": "grass"
          },
          {
            "highway": "path",
            "surface": "grass"
          },
          {
            "highway": "path",
            "surface": "grass"
          },
          {
            "highway": "path",
            "surface": "grass"
          },
          {
            "highway": "path",
            "surface": "grass"
          },
          {
            "highway": "path",
            "surface": "grass"
          },
          {
            "highway": "path",
            "surface": "grass"
          },
          {
            "highway": "track",
            "surface": "asphalt"
          },
          {
            "highway": "track",
            "surface": "asphalt"
          },
          {
            "highway": "track",
            "surface": "asphalt"
          },
          {
            "highway": "path",
            "surface": "ground"
          },
          {
            "highway": "path",
            "surface": "ground"
          },
          {
            "highway": "path",
            "surface": "ground"
          },
          {
            "highway": "path",
            "surface": "ground"
          },
          {
            "highway": "path",
            "surface": "ground"
          },
          {
            "highway": "path",
            "surface": "ground"
          },
          {
            "highway": "path",
            "surface": "ground"
          },
          {
            "highway": "path",
            "surface": "ground"
          },
          {
            "highway": "path",
            "surface": "ground"
          },
          {
            "highway": "path",
            "surface": "ground"
          },
          {
            "highway": "path",
            "surface": "gravel"
          },
          {
            "highway": "path",
            "surface": "gravel"
          },
          {
            "highway": "path",
            "surface": "gravel"
          },
          {
            "highway": "path",
            "surface": "gravel"
          },
          {
            "highway": "path",
            "surface": "gravel"
          },
          {
            "highway": "path",
            "surface": "gravel"
          },
          {
            "highway": "path",
            "surface": "gravel"
          },
          {
            "highway": "path",
            "surface": "gravel"
          },
          {
            "highway": "path",
            "surface": "gravel"
          },
          {
            "highway": "path",
            "surface": "gravel"
          },
          {
            "highway": "path",
            "surface": "gravel"
          },
          {
            "highway": "path",
            "surface": "gravel"
          },
          {
            "highway": "path",
            "surface": "gravel"
          },
          {
            "highway": "path",
            "surface": "gravel"
          },
          {
            "highway": "path",
            "surface": "gravel"
          },
          {
            "highway": "path",
            "surface": "gravel"
          },
          {
            "highway": "path",
            "surface": "gravel"
          },
          {
            "highway": "path",
            "surface": "gravel"
          },
          {
            "highway": "path",
            "surface": "gravel"
          },
          {
            "highway": "path",
            "surface": "gravel"
          },
          {
            "highway": "path",
            "surface": "gravel"
          },
          {
            "highway": "path",
            "surface": "gravel"
          },
          {
            "highway": "path",
            "surface": "gravel"
          },
          {
            "highway": "path",
            "surface": "gravel"
          },
          {
            "highway": "path",
            "surface": "gravel"
          },
          {
            "highway": "path",
            "surface": "gravel"
          },
          {
            "highway": "path",
            "surface": "gravel"
          },
          {
            "highway": "path",
            "surface": "gravel"
          },
          {
            "highway": "path",
            "surface": "gravel"
          },
          {
            "highway": "path",
            "surface": "gravel"
          },
          {
            "highway": "path",
            "surface": "gravel"
          },
          {
            "highway": "path",
            "surface": "gravel"
          },
          {
            "highway": "path",
            "surface": "gravel"
          },
          {
            "highway": "track",
            "surface": "asphalt"
          },
          {
            "highway": "track",
            "surface": "asphalt"
          },
          {
            "highway": "track",
            "surface": "asphalt"
          },
          {
            "highway": "track",
            "surface": "asphalt"
          },
          {
            "highway": "path",
            "surface": "ground"
          },
          {
            "highway": "path",
            "surface": "ground"
          },
          {
            "highway": "path",
            "surface": "ground"
          },
          {
            "highway": "path",
            "surface": "ground"
          },
          {
            "highway": "path",
            "surface": "ground"
          },
          {
            "highway": "path",
            "surface": "ground"
          },
          {
            "highway": "path",
            "surface": "ground"
          },
          {
            "highway": "path",
            "surface": "ground"
          },
          {
            "highway": "path",
            "surface": "ground"
          },
          {
            "highway": "path",
            "surface": "ground"
          },
          {
            "highway": "path",
            "surface": "ground"
          },
          {
            "highway": "path",
            "surface": "ground"
          },
          {
            "highway": "path",
            "surface": "ground"
          },
          {
            "highway": "path",
            "surface": "ground"
          },
          {
            "highway": "path",
            "surface": "ground"
          },
          {
            "highway": "path",
            "surface": "ground"
          },
          {
            "highway": "path",
            "surface": "ground"
          },
          {
            "highway": "path",
            "surface": "ground"
          },
          {
            "highway": "path",
            "surface": "ground"
          },
          {
            "highway": "path",
            "surface": "ground"
          },
          {
            "highway": "path",
            "surface": "ground"
          },
          {
            "highway": "path",
            "surface": "ground"
          },
          {
            "highway": "path",
            "surface": "ground"
          },
          {
            "highway": "path",
            "surface": "ground"
          },
          {
            "highway": "path",
            "surface": "ground"
          },
          {
            "highway": "path",
            "surface": "ground"
          },
          {
            "highway": "path",
            "surface": "ground"
          },
          {
            "highway": "path",
            "surface": "ground"
          },
          {
            "highway": "path",
            "surface": "ground"
          },
          {
            "highway": "path",
            "surface": "ground"
          },
          {
            "highway": "path",
            "surface": "ground"
          },
          {
            "highway": "path",
            "surface": "ground"
          },
          {
            "highway": "path",
            "surface": "ground"
          },
          {
            "highway": "path",
            "surface": "ground"
          },
          {
            "highway": "path",
            "surface": "ground"
          },
          {
            "highway": "path",
            "surface": "ground"
          },
          {
            "highway": "path",
            "surface": "ground"
          },
          {
            "highway": "path",
            "surface": "ground"
          },
          {
            "highway": "path",
            "surface": "ground"
          },
          {
            "highway": "path",
            "surface": "ground"
          },
          {
            "highway": "path",
            "surface": "ground"
          },
          {
            "highway": "path",
            "surface": "ground"
          },
          {
            "highway": "path",
            "surface": "ground"
          },
          {
            "highway": "path",
            "surface": "ground"
          },
          {
            "highway": "path",
            "surface": "ground"
          },
          {
            "highway": "path",
            "surface": "ground"
          },
          {
            "highway": "path",
            "surface": "ground"
          },
          {
            "highway": "path",
            "surface": "ground"
          },
          {
            "highway": "path",
            "surface": "ground"
          },
          {
            "highway": "path",
            "surface": "ground"
          },
          {
            "highway": "path",
            "surface": "ground"
          },
          {
            "highway": "path",
            "surface": "ground"
          },
          {
            "highway": "path",
            "surface": "ground"
          },
          {
            "highway": "path",
            "surface": "ground"
          },
          {
            "highway": "path",
            "surface": "ground"
          },
          {
            "highway": "path",
            "surface": "ground"
          },
          {
            "highway": "path",
            "surface": "ground"
          },
          {
            "highway": "path",
            "surface": "ground"
          },
          {
            "highway": "path",
            "surface": "ground"
          },
          {
            "highway": "path",
            "surface": "ground"
          },
          {
            "highway": "path",
            "surface": "ground"
          },
          {
            "highway": "path",
            "surface": "ground"
          },
          {
            "highway": "path",
            "surface": "ground"
          },
          {
            "highway": "path",
            "surface": "ground"
          },
          {
            "highway": "path",
            "surface": "ground"
          },
          {
            "highway": "path",
            "surface": "ground"
          },
          {
            "highway": "track",
            "surface": "asphalt"
          },
          {
            "highway": "track",
            "surface": "asphalt"
          },
          {
            "highway": "track",
            "surface": "asphalt"
          },
          {
            "highway": "track",
            "surface": "asphalt"
          },
          {
            "highway": "track",
            "surface": "asphalt"
          },
          {
            "highway": "path",
            "surface": "ground"
          },
          {
            "highway": "path",
            "surface": "ground"
          },
          {
            "highway": "path",
            "surface": "ground"
          },
          {
            "highway": "path",
            "surface": "ground"
          },
          {
            "highway": "path",
            "surface": "ground"
          },
          {
            "highway": "path",
            "surface": "ground"
          },
          {
            "highway": "path",
            "surface": "ground"
          },
          {
            "highway": "path",
            "surface": "ground"
          },
          {
            "highway": "path",
            "surface": "ground"
          },
          {
            "highway": "path",
            "surface": "ground"
          },
          {
            "highway": "path",
            "surface": "ground"
          },
          {
            "highway": "path",
            "surface": "ground"
          },
          {
            "highway": "path",
            "surface": "ground"
          },
          {
            "highway": "path",
            "surface": "ground"
          },
          {
            "highway": "path",
            "surface": "ground"
          },
          {
            "highway": "path",
            "surface": "ground"
          },
          {
            "highway": "path",
            "surface": "ground"
          },
          {
            "highway": "path",
            "surface": "ground"
          },
          {
            "highway": "path",
            "surface": "ground"
          },
          {
            "highway": "track",
            "surface": "asphalt"
          },
          {
            "highway": "track",
            "surface": "asphalt"
          },
          {
            "highway": "track",
            "surface": "asphalt"
          },
          {
            "highway": "path",
            "surface": "ground"
          },
          {
            "highway": "path",
            "surface": "ground"
          },
          {
            "highway": "path",
            "surface": "ground"
          },
          {
            "highway": "path",
            "surface": "ground"
          },
          {
            "highway": "path",
            "surface": "ground"
          },
          {
            "highway": "path",
            "surface": "ground"
          },
          {
            "highway": "path",
            "surface": "ground"
          },
          {
            "highway": "path",
            "surface": "ground"
          },
          {
            "highway": "path",
            "surface": "ground"
          },
          {
            "highway": "path",
            "surface": "ground"
          },
          {
            "highway": "path",
            "surface": "ground"
          },
          {
            "highway": "path",
            "surface": "ground"
          },
          {
            "highway": "path",
            "surface": "ground"
          },
          {
            "highway": "path",
            "surface": "ground"
          },
          {
            "highway": "path",
            "surface": "ground"
          },
          {
            "highway": "path",
            "surface": "ground"
          },
          {
            "highway": "path",
            "surface": "ground"
          },
          {
            "highway": "path",
            "surface": "ground"
          },
          {
            "highway": "path",
            "surface": "ground"
          },
          {
            "highway": "path",
            "surface": "ground"
          },
          {
            "highway": "path",
            "surface": "ground"
          },
          {
            "highway": "path",
            "surface": "ground"
          },
          {
            "highway": "path",
            "surface": "ground"
          },
          {
            "highway": "path",
            "surface": "ground"
          },
          {
            "highway": "path",
            "surface": "ground"
          },
          {
            "highway": "path",
            "surface": "ground"
          },
          {
            "highway": "path",
            "surface": "ground"
          },
          {
            "highway": "path",
            "surface": "ground"
          },
          {
            "highway": "path",
            "surface": "ground"
          },
          {
            "highway": "path",
            "surface": "ground"
          },
          {
            "highway": "path",
            "surface": "ground"
          },
          {
            "highway": "path",
            "surface": "ground"
          },
          {
            "highway": "path",
            "surface": "ground"
          },
          {
            "highway": "path",
            "surface": "ground"
          },
          {
            "highway": "path",
            "surface": "ground"
          },
          {
            "highway": "path",
            "surface": "ground"
          },
          {
            "highway": "path",
            "surface": "ground"
          },
          {
            "highway": "path",
            "surface": "ground"
          },
          {
            "highway": "path",
            "surface": "ground"
          },
          {
            "highway": "path",
            "surface": "ground"
          },
          {
            "highway": "path",
            "surface": "ground"
          },
          {
            "highway": "path",
            "surface": "ground"
          },
          {
            "highway": "path",
            "surface": "ground"
          },
          {
            "highway": "path",
            "surface": "ground"
          },
          {
            "highway": "path",
            "surface": "ground"
          },
          {
            "highway": "path",
            "surface": "ground"
          },
          {
            "highway": "path",
            "surface": "ground"
          },
          {
            "highway": "path",
            "surface": "ground"
          },
          {
            "highway": "track",
            "surface": "asphalt"
          },
          {
            "highway": "track",
            "surface": "asphalt"
          },
          {
            "highway": "track",
            "surface": "asphalt"
          },
          {
            "highway": "track",
            "surface": "asphalt"
          },
          {
            "highway": "track",
            "surface": "asphalt"
          },
          {
            "highway": "track",
            "surface": "asphalt"
          },
          {
            "highway": "track",
            "surface": "asphalt"
          },
          {
            "highway": "track",
            "surface": "asphalt"
          },
          {
            "highway": "track",
            "surface": "asphalt"
          },
          {
            "highway": "track",
            "surface": "asphalt"
          },
          {
            "highway": "track",
            "surface": "asphalt"
          },
          {
            "highway": "track",
            "surface": "asphalt"
          },
          {
            "highway": "track",
            "surface": "asphalt"
          },
          {
            "highway": "track",
            "surface": "asphalt"
          },
          {
            "highway": "track",
            "surface": "asphalt"
          },
          {
            "highway": "track",
            "surface": "asphalt"
          },
          {
            "highway": "track",
            "surface": "asphalt"
          },
          {
            "highway": "track",
            "surface": "asphalt"
          },
          {
            "highway": "track",
            "surface": "asphalt"
          },
          {
            "highway": "track",
            "surface": "asphalt"
          },
          {
            "highway": "path",
            "surface": "ground"
          },
          {
            "highway": "path",
            "surface": "ground"
          },
          {
            "highway": "path",
            "surface": "ground"
          },
          {
            "highway": "path",
            "surface": "ground"
          },
          {
            "highway": "path",
            "surface": "ground"
          },
          {
            "highway": "path",
            "surface": "ground"
          },
          {
            "highway": "path",
            "surface": "ground"
          },
          {
            "highway": "path",
            "surface": "ground"
          },
          {
            "highway": "path",
            "surface": "ground"
          },
          {
            "highway": "path",
            "surface": "ground"
          },
          {
            "highway": "path",
            "surface": "ground"
          },
          {
            "highway": "path",
            "surface": "ground"
          },
          {
            "highway": "path",
            "surface": "ground"
          },
          {
            "highway": "path",
            "surface": "ground"
          },
          {
            "highway": "path",
            "surface": "ground"
          },
          {
            "highway": "path",
            "surface": "ground"
          },
          {
            "highway": "path",
            "surface": "ground"
          },
          {
            "highway": "path",
            "surface": "ground"
          },
          {
            "highway": "path",
            "surface": "ground"
          },
          {
            "highway": "path",
            "surface": "ground"
          },
          {
            "highway": "path",
            "surface": "ground"
          },
          {
            "highway": "path",
            "surface": "ground"
          },
          {
            "highway": "path",
            "surface": "ground"
          },
          {
            "highway": "path",
            "surface": "ground"
          },
          {
            "highway": "path",
            "surface": "ground"
          },
          {
            "highway": "path",
            "surface": "ground"
          },
          {
            "highway": "path",
            "surface": "ground"
          },
          {
            "highway": "path",
            "surface": "ground"
          },
          {
            "highway": "path",
            "surface": "ground"
          },
          {
            "highway": "path",
            "surface": "ground"
          },
          {
            "highway": "path",
            "surface": "ground"
          },
          {
            "highway": "path",
            "surface": "ground"
          },
          {
            "highway": "path",
            "surface": "ground"
          },
          {
            "highway": "path",
            "surface": "ground"
          },
          {
            "highway": "path",
            "surface": "ground"
          },
          {
            "highway": "path",
            "surface": "ground"
          },
          {
            "highway": "path",
            "surface": "ground"
          },
          {
            "highway": "path",
            "surface": "ground"
          },
          {
            "highway": "path",
            "surface": "ground"
          },
          {
            "highway": "path",
            "surface": "ground"
          },
          {
            "highway": "path",
            "surface": "ground"
          },
          {
            "highway": "path",
            "surface": "ground"
          },
          {
            "highway": "path",
            "surface": "ground"
          },
          {
            "highway": "path",
            "surface": "ground"
          },
          {
            "highway": "path",
            "surface": "ground"
          },
          {
            "highway": "path",
            "surface": "ground"
          },
          {
            "highway": "path",
            "surface": "ground"
          },
          {
            "highway": "path",
            "surface": "ground"
          },
          {
            "highway": "path",
            "surface": "ground"
          },
          {
            "highway": "path",
            "surface": "ground"
          },
          {
            "highway": "path",
            "surface": "ground"
          },
          {
            "highway": "path",
            "surface": "ground"
          },
          {
            "highway": "path",
            "surface": "ground"
          },
          {
            "highway": "path",
            "surface": "ground"
          },
          {
            "highway": "path",
            "surface": "ground"
          },
          {
            "highway": "path",
            "surface": "ground"
          },
          {
            "highway": "path",
            "surface": "ground"
          },
          {
            "highway": "path",
            "surface": "ground"
          },
          {
            "highway": "path",
            "surface": "ground"
          },
          {
            "highway": "path",
            "surface": "ground"
          },
          {
            "highway": "path",
            "surface": "ground"
          },
          {
            "highway": "path",
            "surface": "ground"
          },
          {
            "highway": "path",
            "surface": "ground"
          },
          {
            "highway": "path",
            "surface": "ground"
          },
          {
            "highway": "path",
            "surface": "ground"
          },
          {
            "highway": "path",
            "surface": "ground"
          },
          {
            "highway": "path",
            "surface": "ground"
          },
          {
            "highway": "path",
            "surface": "ground"
          },
          {
            "highway": "path",
            "surface": "ground"
          },
          {
            "highway": "path",
            "surface": "ground"
          },
          {
            "highway": "path",
            "surface": "ground"
          },
          {
            "highway": "path",
            "surface": "ground"
          },
          {
            "highway": "path",
            "surface": "ground"
          },
          {
            "highway": "path",
            "surface": "ground"
          },
          {
            "highway": "path",
            "surface": "ground"
          },
          {
            "highway": "path",
            "surface": "ground"
          },
          {
            "highway": "path",
            "surface": "ground"
          },
          {
            "highway": "path",
            "surface": "ground"
          },
          {
            "highway": "path",
            "surface": "ground"
          },
          {
            "highway": "path",
            "surface": "ground"
          },
          {
            "highway": "path",
            "surface": "ground"
          },
          {
            "highway": "path",
            "surface": "ground"
          },
          {
            "highway": "path",
            "surface": "ground"
          },
          {
            "highway": "path",
            "surface": "ground"
          },
          {
            "highway": "path",
            "surface": "ground"
          },
          {
            "highway": "path",
            "surface": "ground"
          },
          {
            "highway": "path",
            "surface": "ground"
          },
          {
            "highway": "path",
            "surface": "ground"
          },
          {
            "highway": "path",
            "surface": "ground"
          },
          {
            "highway": "path",
            "surface": "ground"
          },
          {
            "highway": "path",
            "surface": "ground"
          },
          {
            "highway": "path",
            "surface": "ground"
          },
          {
            "highway": "path",
            "surface": "ground"
          },
          {
            "highway": "path",
            "surface": "ground"
          },
          {
            "highway": "path",
            "surface": "ground"
          },
          {
            "highway": "path",
            "surface": "ground"
          },
          {
            "highway": "path",
            "surface": "ground"
          },
          {
            "highway": "path",
            "surface": "ground"
          },
          {
            "highway": "path",
            "surface": "ground"
          },
          {
            "highway": "path",
            "surface": "ground"
          },
          {
            "highway": "path",
            "surface": "ground"
          },
          {
            "highway": "path",
            "surface": "ground"
          },
          {
            "highway": "path",
            "surface": "ground"
          },
          {
            "highway": "path",
            "surface": "ground"
          },
          {
            "highway": "path",
            "surface": "ground"
          },
          {
            "highway": "path",
            "surface": "ground"
          },
          {
            "highway": "path",
            "surface": "ground"
          },
          {
            "highway": "path",
            "surface": "ground"
          },
          {
            "highway": "path",
            "surface": "ground"
          },
          {
            "highway": "path",
            "surface": "ground"
          },
          {
            "highway": "path",
            "surface": "ground"
          },
          {
            "highway": "path",
            "surface": "ground"
          },
          {
            "highway": "path",
            "surface": "ground"
          },
          {
            "highway": "path",
            "surface": "ground"
          },
          {
            "highway": "path",
            "surface": "ground"
          },
          {
            "highway": "path",
            "surface": "ground"
          },
          {
            "highway": "path",
            "surface": "ground"
          },
          {
            "highway": "path",
            "surface": "ground"
          },
          {
            "highway": "path",
            "surface": "ground"
          },
          {
            "highway": "path",
            "surface": "ground"
          },
          {
            "highway": "path",
            "surface": "ground"
          },
          {
            "highway": "path",
            "surface": "ground"
          },
          {
            "highway": "path",
            "surface": "ground"
          },
          {
            "highway": "path",
            "surface": "ground"
          },
          {
            "highway": "path",
            "surface": "ground"
          },
          {
            "highway": "path",
            "surface": "ground"
          },
          {
            "highway": "path",
            "surface": "ground"
          },
          {
            "highway": "path",
            "surface": "ground"
          },
          {
            "highway": "path",
            "surface": "ground"
          },
          {
            "highway": "path",
            "surface": "ground"
          },
          {
            "highway": "path",
            "surface": "ground"
          },
          {
            "highway": "path",
            "surface": "ground"
          },
          {
            "highway": "path",
            "surface": "ground"
          },
          {
            "highway": "path",
            "surface": "ground"
          },
          {
            "highway": "path",
            "surface": "ground"
          },
          {
            "highway": "path",
            "surface": "ground"
          },
          {
            "highway": "path",
            "surface": "ground"
          },
          {
            "highway": "path",
            "surface": "ground"
          },
          {
            "highway": "path",
            "surface": "ground"
          },
          {
            "highway": "path",
            "surface": "ground"
          },
          {
            "highway": "path",
            "surface": "ground"
          },
          {
            "highway": "path",
            "surface": "ground"
          },
          {
            "highway": "path",
            "surface": "ground"
          },
          {
            "highway": "path",
            "surface": "ground"
          },
          {
            "highway": "path",
            "surface": "ground"
          },
          {
            "highway": "path",
            "surface": "ground"
          },
          {
            "highway": "path",
            "surface": "ground"
          },
          {
            "highway": "path",
            "surface": "ground"
          },
          {
            "highway": "path",
            "surface": "ground"
          },
          {
            "highway": "path",
            "surface": "ground"
          },
          {
            "highway": "path",
            "surface": "ground"
          },
          {
            "highway": "track",
            "surface": "asphalt"
          },
          {
            "highway": "track",
            "surface": "asphalt"
          },
          {
            "highway": "track",
            "surface": "asphalt"
          },
          {
            "highway": "track",
            "surface": "asphalt"
          },
          {
            "highway": "track",
            "surface": "asphalt"
          },
          {
            "highway": "track",
            "surface": "asphalt"
          },
          {
            "highway": "track",
            "surface": "asphalt"
          },
          {
            "highway": "track",
            "surface": "asphalt"
          },
          {
            "highway": "track",
            "surface": "asphalt"
          },
          {
            "highway": "track",
            "surface": "asphalt"
          },
          {
            "highway": "track",
            "surface": "asphalt"
          },
          {
            "highway": "track",
            "surface": "asphalt"
          },
          {
            "highway": "track",
            "surface": "asphalt"
          },
          {
            "highway": "track",
            "surface": "asphalt"
          },
          {
            "highway": "path",
            "surface": "ground"
          },
          {
            "highway": "path",
            "surface": "ground"
          },
          {
            "highway": "path",
            "surface": "ground"
          },
          {
            "highway": "path",
            "surface": "ground"
          },
          {
            "highway": "path",
            "surface": "ground"
          },
          {
            "highway": "path",
            "surface": "ground"
          },
          {
            "highway": "path",
            "surface": "ground"
          },
          {
            "highway": "path",
            "surface": "ground"
          },
          {
            "highway": "path",
            "surface": "ground"
          },
          {
            "highway": "path",
            "surface": "ground"
          },
          {
            "highway": "path",
            "surface": "ground"
          },
          {
            "highway": "path",
            "surface": "ground"
          },
          {
            "highway": "path",
            "surface": "ground"
          },
          {
            "highway": "path",
            "surface": "ground"
          },
          {
            "highway": "path",
            "surface": "ground"
          },
          {
            "highway": "path",
            "surface": "ground"
          },
          {
            "highway": "path",
            "surface": "ground"
          },
          {
            "highway": "path",
            "surface": "ground"
          },
          {
            "highway": "path",
            "surface": "ground"
          },
          {
            "highway": "path",
            "surface": "ground"
          },
          {
            "highway": "path",
            "surface": "ground"
          },
          {
            "highway": "path",
            "surface": "ground"
          },
          {
            "highway": "path",
            "surface": "ground"
          },
          {
            "highway": "path",
            "surface": "ground"
          },
          {
            "highway": "path",
            "surface": "ground"
          },
          {
            "highway": "path",
            "surface": "ground"
          },
          {
            "highway": "path",
            "surface": "ground"
          },
          {
            "highway": "path",
            "surface": "ground"
          },
          {
            "highway": "path",
            "surface": "ground"
          },
          {
            "highway": "path",
            "surface": "ground"
          },
          {
            "highway": "path",
            "surface": "ground"
          },
          {
            "highway": "path",
            "surface": "ground"
          },
          {
            "highway": "path",
            "surface": "ground"
          },
          {
            "highway": "path",
            "surface": "ground"
          },
          {
            "highway": "path",
            "surface": "ground"
          },
          {
            "highway": "path",
            "surface": "ground"
          },
          {
            "highway": "path",
            "surface": "ground"
          },
          {
            "highway": "path",
            "surface": "ground"
          },
          {
            "highway": "path",
            "surface": "ground"
          },
          {
            "highway": "path",
            "surface": "ground"
          },
          {
            "highway": "track",
            "surface": "asphalt"
          },
          {
            "highway": "track",
            "surface": "asphalt"
          },
          {
            "highway": "track",
            "surface": "asphalt"
          },
          {
            "highway": "track",
            "surface": "asphalt"
          },
          {
            "highway": "track",
            "surface": "asphalt"
          },
          {
            "highway": "track",
            "surface": "asphalt"
          },
          {
            "highway": "track",
            "surface": "asphalt"
          },
          {
            "highway": "track",
            "surface": "asphalt"
          },
          {
            "highway": "track",
            "surface": "asphalt"
          },
          {
            "highway": "track",
            "surface": "asphalt"
          },
          {
            "highway": "track",
            "surface": "asphalt"
          },
          {
            "highway": "track",
            "surface": "asphalt"
          },
          {
            "highway": "track",
            "surface": "asphalt"
          },
          {
            "highway": "track",
            "surface": "asphalt"
          },
          {
            "highway": "track",
            "surface": "asphalt"
          },
          {
            "highway": "track",
            "surface": "asphalt"
          },
          {
            "highway": "track",
            "surface": "asphalt"
          },
          {
            "highway": "track",
            "surface": "asphalt"
          },
          {
            "highway": "track",
            "surface": "asphalt"
          },
          {
            "highway": "track",
            "surface": "asphalt"
          },
          {
            "highway": "track",
            "surface": "asphalt"
          },
          {
            "highway": "track",
            "surface": "asphalt"
          },
          {
            "highway": "track",
            "surface": "asphalt"
          },
          {
            "highway": "track",
            "surface": "asphalt"
          },
          {
            "highway": "path",
            "surface": "ground"
          },
          {
            "highway": "path",
            "surface": "ground"
          },
          {
            "highway": "path",
            "surface": "ground"
          },
          {
            "highway": "path",
            "surface": "ground"
          },
          {
            "highway": "path",
            "surface": "ground"
          },
          {
            "highway": "path",
            "surface": "ground"
          },
          {
            "highway": "path",
            "surface": "ground"
          },
          {
            "highway": "path",
            "surface": "ground"
          },
          {
            "highway": "path",
            "surface": "ground"
          },
          {
            "highway": "path",
            "surface": "ground"
          },
          {
            "highway": "path",
            "surface": "ground"
          },
          {
            "highway": "path",
            "surface": "ground"
          },
          {
            "highway": "path",
            "surface": "ground"
          },
          {
            "highway": "path",
            "surface": "ground"
          },
          {
            "highway": "path",
            "surface": "ground"
          },
          {
            "highway": "path",
            "surface": "ground"
          },
          {
            "highway": "path",
            "surface": "ground"
          },
          {
            "highway": "path",
            "surface": "ground"
          },
          {
            "highway": "path",
            "surface": "ground"
          },
          {
            "highway": "path",
            "surface": "ground"
          },
          {
            "highway": "path",
            "surface": "ground"
          },
          {
            "highway": "path",
            "surface": "ground"
          },
          {
            "highway": "path",
            "surface": "ground"
          },
          {
            "highway": "path",
            "surface": "ground"
          },
          {
            "highway": "path",
            "surface": "ground"
          },
          {
            "highway": "path",
            "surface": "ground"
          },
          {
            "highway": "path",
            "surface": "ground"
          },
          {
            "highway": "path",
            "surface": "ground"
          },
          {
            "highway": "path",
            "surface": "ground"
          },
          {
            "highway": "path",
            "surface": "ground"
          },
          {
            "highway": "path",
            "surface": "ground"
          },
          {
            "highway": "path",
            "surface": "ground"
          },
          {
            "highway": "path",
            "surface": "ground"
          },
          {
            "highway": "path",
            "surface": "ground"
          },
          {
            "highway": "path",
            "surface": "ground"
          },
          {
            "highway": "path",
            "surface": "ground"
          },
          {
            "highway": "path",
            "surface": "ground"
          },
          {
            "highway": "path",
            "surface": "ground"
          },
          {
            "highway": "path",
            "surface": "ground"
          },
          {
            "highway": "path",
            "surface": "ground"
          },
          {
            "highway": "path",
            "surface": "ground"
          },
          {
            "highway": "path",
            "surface": "ground"
          },
          {
            "highway": "path",
            "surface": "ground"
          },
          {
            "highway": "path",
            "surface": "ground"
          },
          {
            "highway": "path",
            "surface": "ground"
          },
          {
            "highway": "path",
            "surface": "ground"
          },
          {
            "highway": "path",
            "surface": "ground"
          },
          {
            "highway": "path",
            "surface": "ground"
          },
          {
            "highway": "path",
            "surface": "ground"
          },
          {
            "highway": "path",
            "surface": "ground"
          },
          {
            "highway": "path",
            "surface": "ground"
          },
          {
            "highway": "path",
            "surface": "ground"
          },
          {
            "highway": "path",
            "surface": "ground"
          },
          {
            "highway": "path",
            "surface": "ground"
          },
          {
            "highway": "path",
            "surface": "ground"
          },
          {
            "highway": "path",
            "surface": "ground"
          },
          {
            "highway": "path",
            "surface": "ground"
          },
          {
            "highway": "path",
            "surface": "ground"
          },
          {
            "highway": "path",
            "surface": "ground"
          },
          {
            "highway": "path",
            "surface": "ground"
          },
          {
            "highway": "path",
            "surface": "ground"
          },
          {
            "highway": "path",
            "surface": "ground"
          },
          {
            "highway": "path",
            "surface": "ground"
          },
          {
            "highway": "path",
            "surface": "ground"
          },
          {
            "highway": "path",
            "surface": "ground"
          },
          {
            "highway": "path",
            "surface": "ground"
          },
          {
            "highway": "path",
            "surface": "ground"
          },
          {
            "highway": "path",
            "surface": "ground"
          },
          {
            "highway": "path",
            "surface": "ground"
          },
          {
            "highway": "path",
            "surface": "ground"
          },
          {
            "highway": "path",
            "surface": "ground"
          },
          {
            "highway": "path",
            "surface": "ground"
          },
          {
            "highway": "path",
            "surface": "ground"
          },
          {
            "highway": "path",
            "surface": "ground"
          },
          {
            "highway": "path",
            "surface": "ground"
          },
          {
            "highway": "path",
            "surface": "ground"
          },
          {
            "highway": "path",
            "surface": "ground"
          },
          {
            "highway": "path",
            "surface": "ground"
          },
          {
            "highway": "path",
            "surface": "ground"
          },
          {
            "highway": "path",
            "surface": "ground"
          },
          {
            "highway": "path",
            "surface": "ground"
          },
          {
            "highway": "path",
            "surface": "ground"
          },
          {
            "highway": "path",
            "surface": "ground"
          },
          {
            "highway": "path",
            "surface": "ground"
          },
          {
            "highway": "path",
            "surface": "ground"
          },
          {
            "highway": "path",
            "surface": "ground"
          },
          {
            "highway": "path",
            "surface": "ground"
          },
          {
            "highway": "path",
            "surface": "ground"
          },
          {
            "highway": "path",
            "surface": "ground"
          },
          {
            "highway": "path",
            "surface": "ground"
          },
          {
            "highway": "path",
            "surface": "ground"
          },
          {
            "highway": "path",
            "surface": "ground"
          },
          {
            "highway": "path",
            "surface": "ground"
          },
          {
            "highway": "path",
            "surface": "ground"
          },
          {
            "highway": "path",
            "surface": "ground"
          },
          {
            "highway": "path",
            "surface": "ground"
          },
          {
            "highway": "path",
            "surface": "ground"
          },
          {
            "highway": "path",
            "surface": "ground"
          },
          {
            "highway": "path",
            "surface": "ground"
          },
          {
            "highway": "path",
            "surface": "ground"
          },
          {
            "highway": "path",
            "surface": "ground"
          },
          {
            "highway": "path",
            "surface": "ground"
          },
          {
            "highway": "path",
            "surface": "ground"
          },
          {
            "highway": "path",
            "surface": "ground"
          },
          {
            "highway": "path",
            "surface": "ground"
          },
          {
            "highway": "path",
            "surface": "ground"
          },
          {
            "highway": "track",
            "surface": "asphalt"
          },
          {
            "highway": "track",
            "surface": "asphalt"
          },
          {
            "highway": "track",
            "surface": "asphalt"
          },
          {
            "highway": "track",
            "surface": "asphalt"
          },
          {
            "highway": "track",
            "surface": "asphalt"
          },
          {
            "highway": "track",
            "surface": "asphalt"
          },
          {
            "highway": "track",
            "surface": "asphalt"
          },
          {
            "highway": "path",
            "surface": "ground"
          },
          {
            "highway": "path",
            "surface": "ground"
          },
          {
            "highway": "path",
            "surface": "ground"
          },
          {
            "highway": "path",
            "surface": "ground"
          },
          {
            "highway": "path",
            "surface": "ground"
          },
          {
            "highway": "path",
            "surface": "ground"
          },
          {
            "highway": "path",
            "surface": "ground"
          },
          {
            "highway": "path",
            "surface": "ground"
          },
          {
            "highway": "path",
            "surface": "ground"
          },
          {
            "highway": "path",
            "surface": "ground"
          },
          {
            "highway": "path",
            "surface": "ground"
          },
          {
            "highway": "path",
            "surface": "ground"
          },
          {
            "highway": "path",
            "surface": "ground"
          },
          {
            "highway": "path",
            "surface": "ground"
          },
          {
            "highway": "path",
            "surface": "ground"
          },
          {
            "highway": "path",
            "surface": "ground"
          },
          {
            "highway": "path",
            "surface": "ground"
          },
          {
            "highway": "path",
            "surface": "ground"
          },
          {
            "highway": "path",
            "surface": "ground"
          },
          {
            "highway": "path",
            "surface": "ground"
          },
          {
            "highway": "path",
            "surface": "ground"
          },
          {
            "highway": "path",
            "surface": "ground"
          },
          {
            "highway": "path",
            "surface": "ground"
          },
          {
            "highway": "path",
            "surface": "ground"
          },
          {
            "highway": "path",
            "surface": "ground"
          },
          {
            "highway": "path",
            "surface": "ground"
          },
          {
            "highway": "path",
            "surface": "ground"
          },
          {
            "highway": "path",
            "surface": "ground"
          },
          {
            "highway": "path",
            "surface": "ground"
          },
          {
            "highway": "path",
            "surface": "ground"
          },
          {
            "highway": "path",
            "surface": "ground"
          },
          {
            "highway": "path",
            "surface": "ground"
          },
          {
            "highway": "path",
            "surface": "ground"
          },
          {
            "highway": "path",
            "surface": "ground"
          },
          {
            "highway": "path",
            "surface": "ground"
          },
          {
            "highway": "path",
            "surface": "ground"
          },
          {
            "highway": "path",
            "surface": "ground"
          },
          {
            "highway": "path",
            "surface": "ground"
          },
          {
            "highway": "path",
            "surface": "ground"
          },
          {
            "highway": "path",
            "surface": "ground"
          },
          {
            "highway": "path",
            "surface": "ground"
          },
          {
            "highway": "path",
            "surface": "ground"
          },
          {
            "highway": "path",
            "surface": "ground"
          },
          {
            "highway": "path",
            "surface": "ground"
          },
          {
            "highway": "path",
            "surface": "ground"
          },
          {
            "highway": "path",
            "surface": "ground"
          },
          {
            "highway": "path",
            "surface": "ground"
          },
          {
            "highway": "path",
            "surface": "ground"
          },
          {
            "highway": "path",
            "surface": "ground"
          },
          {
            "highway": "path",
            "surface": "ground"
          },
          {
            "highway": "path",
            "surface": "ground"
          },
          {
            "highway": "path",
            "surface": "ground"
          },
          {
            "highway": "path",
            "surface": "ground"
          },
          {
            "highway": "path",
            "surface": "ground"
          },
          {
            "highway": "path",
            "surface": "ground"
          },
          {
            "highway": "path",
            "surface": "ground"
          },
          {
            "highway": "path",
            "surface": "ground"
          },
          {
            "highway": "path",
            "surface": "ground"
          },
          {
            "highway": "path",
            "surface": "ground"
          },
          {
            "highway": "path",
            "surface": "ground"
          },
          {
            "highway": "path",
            "surface": "ground"
          },
          {
            "highway": "path",
            "surface": "ground"
          },
          {
            "highway": "path",
            "surface": "ground"
          },
          {
            "highway": "path",
            "surface": "ground"
          },
          {
            "highway": "path",
            "surface": "ground"
          },
          {
            "highway": "path",
            "surface": "ground"
          },
          {
            "highway": "path",
            "surface": "ground"
          },
          {
            "highway": "path",
            "surface": "ground"
          },
          {
            "highway": "path",
            "surface": "ground"
          },
          {
            "highway": "path",
            "surface": "ground"
          },
          {
            "highway": "path",
            "surface": "ground"
          },
          {
            "highway": "path",
            "surface": "ground"
          },
          {
            "highway": "path",
            "surface": "ground"
          },
          {
            "highway": "path",
            "surface": "ground"
          },
          {
            "highway": "path",
            "surface": "ground"
          },
          {
            "highway": "path",
            "surface": "ground"
          },
          {
            "highway": "path",
            "surface": "ground"
          },
          {
            "highway": "path",
            "surface": "ground"
          },
          {
            "highway": "path",
            "surface": "ground"
          },
          {
            "highway": "path",
            "surface": "ground"
          },
          {
            "highway": "path",
            "surface": "ground"
          },
          {
            "highway": "path",
            "surface": "ground"
          },
          {
            "highway": "path",
            "surface": "ground"
          },
          {
            "highway": "path",
            "surface": "ground"
          },
          {
            "highway": "path",
            "surface": "ground"
          },
          {
            "highway": "path",
            "surface": "ground"
          },
          {
            "highway": "path",
            "surface": "ground"
          },
          {
            "highway": "path",
            "surface": "ground"
          },
          {
            "highway": "path",
            "surface": "ground"
          },
          {
            "highway": "path",
            "surface": "ground"
          },
          {
            "highway": "path",
            "surface": "ground"
          },
          {
            "highway": "path",
            "surface": "ground"
          },
          {
            "highway": "path",
            "surface": "ground"
          },
          {
            "highway": "path",
            "surface": "ground"
          },
          {
            "highway": "path",
            "surface": "ground"
          },
          {
            "highway": "path",
            "surface": "ground"
          },
          {
            "highway": "path",
            "surface": "ground"
          },
          {
            "highway": "path",
            "surface": "ground"
          },
          {
            "highway": "path",
            "surface": "ground"
          },
          {
            "highway": "path",
            "surface": "ground"
          },
          {
            "highway": "path",
            "surface": "ground"
          },
          {
            "highway": "path",
            "surface": "ground"
          },
          {
            "highway": "path",
            "surface": "ground"
          },
          {
            "highway": "path",
            "surface": "ground"
          },
          {
            "highway": "path",
            "surface": "ground"
          },
          {
            "highway": "path",
            "surface": "ground"
          },
          {
            "highway": "path",
            "surface": "ground"
          },
          {
            "highway": "path",
            "surface": "ground"
          },
          {
            "highway": "path",
            "surface": "ground"
          },
          {
            "highway": "path",
            "surface": "ground"
          },
          {
            "highway": "path",
            "surface": "ground"
          },
          {
            "highway": "path",
            "surface": "ground"
          },
          {
            "highway": "path",
            "surface": "ground"
          },
          {
            "highway": "path",
            "surface": "ground"
          },
          {
            "highway": "path",
            "surface": "ground"
          },
          {
            "highway": "path",
            "surface": "ground"
          },
          {
            "highway": "path",
            "surface": "ground"
          },
          {
            "highway": "path",
            "surface": "ground"
          },
          {
            "highway": "path",
            "surface": "ground"
          },
          {
            "highway": "path",
            "surface": "ground"
          },
          {
            "highway": "path",
            "surface": "ground"
          },
          {
            "highway": "path",
            "surface": "ground"
          },
          {
            "highway": "path",
            "surface": "ground"
          },
          {
            "highway": "path",
            "surface": "ground"
          },
          {
            "highway": "track",
            "surface": "asphalt"
          },
          {
            "highway": "track",
            "surface": "asphalt"
          },
          {
            "highway": "track",
            "surface": "asphalt"
          },
          {
            "highway": "track",
            "surface": "asphalt"
          },
          {
            "highway": "track",
            "surface": "asphalt"
          },
          {
            "highway": "track",
            "surface": "asphalt"
          },
          {
            "highway": "track",
            "surface": "asphalt"
          },
          {
            "highway": "track",
            "surface": "asphalt"
          },
          {
            "highway": "track",
            "surface": "asphalt"
          },
          {
            "highway": "track",
            "surface": "asphalt"
          },
          {
            "highway": "track",
            "surface": "asphalt"
          },
          {
            "highway": "track",
            "surface": "asphalt"
          },
          {
            "highway": "track",
            "surface": "asphalt"
          },
          {
            "highway": "track",
            "surface": "asphalt"
          },
          {
            "highway": "track",
            "surface": "asphalt"
          },
          {
            "highway": "track",
            "surface": "asphalt"
          },
          {
            "highway": "track",
            "surface": "asphalt"
          },
          {
            "highway": "track",
            "surface": "asphalt"
          },
          {
            "highway": "track",
            "surface": "asphalt"
          },
          {
            "highway": "track",
            "surface": "asphalt"
          },
          {
            "highway": "path",
            "surface": "ground"
          },
          {
            "highway": "path",
            "surface": "ground"
          },
          {
            "highway": "path",
            "surface": "ground"
          },
          {
            "highway": "path",
            "surface": "ground"
          },
          {
            "highway": "path",
            "surface": "ground"
          },
          {
            "highway": "path",
            "surface": "ground"
          },
          {
            "highway": "path",
            "surface": "ground"
          },
          {
            "highway": "path",
            "surface": "ground"
          },
          {
            "highway": "path",
            "surface": "ground"
          },
          {
            "highway": "path",
            "surface": "ground"
          },
          {
            "highway": "path",
            "surface": "ground"
          },
          {
            "highway": "path",
            "surface": "ground"
          },
          {
            "highway": "path",
            "surface": "ground"
          },
          {
            "highway": "path",
            "surface": "ground"
          },
          {
            "highway": "path",
            "surface": "ground"
          },
          {
            "highway": "path",
            "surface": "ground"
          },
          {
            "highway": "path",
            "surface": "ground"
          },
          {
            "highway": "path",
            "surface": "ground"
          },
          {
            "highway": "path",
            "surface": "ground"
          },
          {
            "highway": "path",
            "surface": "ground"
          },
          {
            "highway": "path",
            "surface": "ground"
          },
          {
            "highway": "path",
            "surface": "ground"
          },
          {
            "highway": "path",
            "surface": "ground"
          },
          {
            "highway": "path",
            "surface": "ground"
          },
          {
            "highway": "path",
            "surface": "ground"
          },
          {
            "highway": "path",
            "surface": "ground"
          },
          {
            "highway": "path",
            "surface": "ground"
          },
          {
            "highway": "path",
            "surface": "ground"
          },
          {
            "highway": "path",
            "surface": "ground"
          },
          {
            "highway": "path",
            "surface": "ground"
          },
          {
            "highway": "path",
            "surface": "ground"
          },
          {
            "highway": "path",
            "surface": "ground"
          },
          {
            "highway": "path",
            "surface": "ground"
          },
          {
            "highway": "track",
            "surface": "asphalt"
          },
          {
            "highway": "track",
            "surface": "asphalt"
          },
          {
            "highway": "track",
            "surface": "asphalt"
          },
          {
            "highway": "track",
            "surface": "asphalt"
          },
          {
            "highway": "track",
            "surface": "asphalt"
          },
          {
            "highway": "track",
            "surface": "asphalt"
          },
          {
            "highway": "track",
            "surface": "asphalt"
          },
          {
            "highway": "track",
            "surface": "asphalt"
          },
          {
            "highway": "track",
            "surface": "asphalt"
          },
          {
            "highway": "track",
            "surface": "asphalt"
          },
          {
            "highway": "track",
            "surface": "asphalt"
          },
          {
            "highway": "track",
            "surface": "asphalt"
          },
          {
            "highway": "track",
            "surface": "asphalt"
          },
          {
            "highway": "track",
            "surface": "asphalt"
          },
          {
            "highway": "path",
            "surface": "ground"
          },
          {
            "highway": "path",
            "surface": "ground"
          },
          {
            "highway": "path",
            "surface": "ground"
          },
          {
            "highway": "path",
            "surface": "ground"
          },
          {
            "highway": "path",
            "surface": "ground"
          },
          {
            "highway": "path",
            "surface": "ground"
          },
          {
            "highway": "path",
            "surface": "ground"
          },
          {
            "highway": "path",
            "surface": "ground"
          },
          {
            "highway": "path",
            "surface": "ground"
          },
          {
            "highway": "path",
            "surface": "ground"
          },
          {
            "highway": "path",
            "surface": "ground"
          },
          {
            "highway": "path",
            "surface": "ground"
          },
          {
            "highway": "path",
            "surface": "ground"
          },
          {
            "highway": "path",
            "surface": "ground"
          },
          {
            "highway": "path",
            "surface": "ground"
          },
          {
            "highway": "path",
            "surface": "ground"
          },
          {
            "highway": "path",
            "surface": "ground"
          },
          {
            "highway": "path",
            "surface": "ground"
          },
          {
            "highway": "path",
            "surface": "ground"
          },
          {
            "highway": "path",
            "surface": "ground"
          },
          {
            "highway": "path",
            "surface": "ground"
          },
          {
            "highway": "path",
            "surface": "ground"
          },
          {
            "highway": "path",
            "surface": "ground"
          },
          {
            "highway": "path",
            "surface": "ground"
          },
          {
            "highway": "path",
            "surface": "ground"
          },
          {
            "highway": "path",
            "surface": "ground"
          },
          {
            "highway": "path",
            "surface": "ground"
          },
          {
            "highway": "path",
            "surface": "ground"
          },
          {
            "highway": "path",
            "surface": "ground"
          },
          {
            "highway": "path",
            "surface": "ground"
          },
          {
            "highway": "path",
            "surface": "ground"
          },
          {
            "highway": "path",
            "surface": "ground"
          },
          {
            "highway": "path",
            "surface": "ground"
          },
          {
            "highway": "path",
            "surface": "ground"
          },
          {
            "highway": "path",
            "surface": "ground"
          },
          {
            "highway": "path",
            "surface": "ground"
          },
          {
            "highway": "path",
            "surface": "ground"
          },
          {
            "highway": "path",
            "surface": "ground"
          },
          {
            "highway": "path",
            "surface": "ground"
          },
          {
            "highway": "path",
            "surface": "ground"
          },
          {
            "highway": "path",
            "surface": "ground"
          },
          {
            "highway": "path",
            "surface": "ground"
          },
          {
            "highway": "path",
            "surface": "ground"
          },
          {
            "highway": "path",
            "surface": "ground"
          },
          {
            "highway": "path",
            "surface": "ground"
          },
          {
            "highway": "path",
            "surface": "ground"
          },
          {
            "highway": "path",
            "surface": "ground"
          },
          {
            "highway": "path",
            "surface": "ground"
          },
          {
            "highway": "path",
            "surface": "ground"
          },
          {
            "highway": "path",
            "surface": "ground"
          },
          {
            "highway": "path",
            "surface": "ground"
          },
          {
            "highway": "path",
            "surface": "ground"
          },
          {
            "highway": "track",
            "surface": "asphalt"
          },
          {
            "highway": "track",
            "surface": "asphalt"
          },
          {
            "highway": "track",
            "surface": "asphalt"
          },
          {
            "highway": "track",
            "surface": "asphalt"
          },
          {
            "highway": "track",
            "surface": "asphalt"
          },
          {
            "highway": "track",
            "surface": "asphalt"
          },
          {
            "highway": "track",
            "surface": "asphalt"
          },
          {
            "highway": "track",
            "surface": "asphalt"
          },
          {
            "highway": "track",
            "surface": "asphalt"
          },
          {
            "highway": "track",
            "surface": "asphalt"
          },
          {
            "highway": "track",
            "surface": "asphalt"
          },
          {
            "highway": "track",
            "surface": "asphalt"
          },
          {
            "highway": "track",
            "surface": "asphalt"
          },
          {
            "highway": "track",
            "surface": "asphalt"
          },
          {
            "highway": "track",
            "surface": "asphalt"
          },
          {
            "highway": "track",
            "surface": "asphalt"
          },
          {
            "highway": "track",
            "surface": "asphalt"
          },
          {
            "highway": "track",
            "surface": "asphalt"
          },
          {
            "highway": "track",
            "surface": "asphalt"
          },
          {
            "highway": "path",
            "surface": "asphalt"
          },
          {
            "highway": "path",
            "surface": "asphalt"
          },
          {
            "highway": "path",
            "surface": "asphalt"
          },
          {
            "highway": "path",
            "surface": "asphalt"
          },
          {
            "highway": "path",
            "surface": "asphalt"
          },
          {
            "highway": "path",
            "surface": "asphalt"
          },
          {
            "highway": "path",
            "surface": "asphalt"
          },
          {
            "highway": "path",
            "surface": "grass"
          },
          {
            "highway": "path",
            "surface": "grass"
          },
          {
            "highway": "path",
            "surface": "grass"
          },
          {
            "highway": "path",
            "surface": "grass"
          },
          {
            "highway": "path",
            "surface": "grass"
          },
          {
            "highway": "path",
            "surface": "grass"
          },
          {
            "highway": "path",
            "surface": "grass"
          },
          {
            "highway": "path",
            "surface": "grass"
          },
          {
            "highway": "path",
            "surface": "asphalt"
          }
        ]
      },
      "geometry": {
        "type": "LineString",
        "coordinates": [
          [
            5.003519,
            45.553319,
            239.0
          ],
          [
            5.003024,
            45.553299,
            238.01
          ],
          [
            5.001601,
            45.553069,
            237.0
          ],
          [
            5.001388,
            45.553668,
            236.795
          ],
          [
            5.001353,
            45.553762,
            236.387
          ],
          [
            5.000969,
            45.554898,
            235.488
          ],
          [
            5.000822,
            45.555072,
            235.0
          ],
          [
            5.000568,
            45.555494,
            234.222
          ],
          [
            5.000554,
            45.555568,
            234.0
          ],
          [
            5.000591,
            45.555632,
            234.0
          ],
          [
            5.000666,
            45.555678,
            234.0
          ],
          [
            5.000779,
            45.555689,
            234.0
          ],
          [
            5.002769,
            45.555878,
            236.813
          ],
          [
            5.002866,
            45.555817,
            236.701
          ],
          [
            5.002963,
            45.55583,
            236.341
          ],
          [
            5.004055,
            45.553688,
            239.125
          ],
          [
            5.003929,
            45.5536,
            239.861
          ],
          [
            5.004091,
            45.553285,
            240.0
          ],
          [
            5.004157,
            45.553089,
            240.0
          ],
          [
            5.004188,
            45.55303,
            240.077
          ],
          [
            5.004256,
            45.552987,
            240.322
          ],
          [
            5.004346,
            45.552963,
            240.646
          ],
          [
            5.004517,
            45.552929,
            241.0
          ],
          [
            5.004612,
            45.552897,
            241.0
          ],
          [
            5.004723,
            45.552787,
            241.0
          ],
          [
            5.004791,
            45.552717,
            241.219
          ],
          [
            5.004892,
            45.552705,
            241.262
          ],
          [
            5.005028,
            45.552635,
            241.514
          ],
          [
            5.005141,
            45.552609,
            241.608
          ],
          [
            5.005266,
            45.552582,
            241.705
          ],
          [
            5.005424,
            45.552558,
            241.791
          ],
          [
            5.005568,
            45.552546,
            241.834
          ],
          [
            5.005753,
            45.552538,
            241.863
          ],
          [
            5.005905,
            45.552533,
            241.881
          ],
          [
            5.006122,
            45.552507,
            241.975
          ],
          [
            5.006202,
            45.552494,
            242.015
          ],
          [
            5.006346,
            45.55246,
            242.022
          ],
          [
            5.006457,
            45.552442,
            242.0
          ],
          [
            5.006607,
            45.55244,
            242.0
          ],
          [
            5.006763,
            45.552441,
            242.273
          ],
          [
            5.007432,
            45.552527,
            243.852
          ],
          [
            5.008152,
            45.552366,
            247.865
          ],
          [
            5.008211,
            45.552326,
            247.933
          ],
          [
            5.008331,
            45.552349,
            248.448
          ],
          [
            5.008422,
            45.552311,
            249.162
          ],
          [
            5.008606,
            45.552302,
            250.814
          ],
          [
            5.008758,
            45.552309,
            256.292
          ],
          [
            5.008905,
            45.552318,
            261.214
          ],
          [
            5.009205,
            45.552252,
            267.68
          ],
          [
            5.009441,
            45.552203,
            272.088
          ],
          [
            5.009739,
            45.552159,
            275.069
          ],
          [
            5.009947,
            45.552153,
            276.008
          ],
          [
            5.010093,
            45.552151,
            276.368
          ],
          [
            5.010255,
            45.552088,
            277.86
          ],
          [
            5.010462,
            45.552088,
            277.921
          ],
          [
            5.010735,
            45.552074,
            278.134
          ],
          [
            5.010694,
            45.551987,
            279.387
          ],
          [
            5.010611,
            45.551864,
            280.927
          ],
          [
            5.01049,
            45.551728,
            282.39
          ],
          [
            5.010387,
            45.551722,
            282.523
          ],
          [
            5.010258,
            45.551629,
            283.336
          ],
          [
            5.010153,
            45.551515,
            284.189
          ],
          [
            5.010094,
            45.551418,
            285.024
          ],
          [
            5.010066,
            45.551333,
            285.534
          ],
          [
            5.010071,
            45.551214,
            286.207
          ],
          [
            5.010093,
            45.551153,
            286.753
          ],
          [
            5.010159,
            45.551088,
            287.67
          ],
          [
            5.010236,
            45.551051,
            288.786
          ],
          [
            5.010348,
            45.55102,
            289.909
          ],
          [
            5.010511,
            45.551017,
            290.517
          ],
          [
            5.010877,
            45.551045,
            291.677
          ],
          [
            5.011032,
            45.55107,
            291.338
          ],
          [
            5.011168,
            45.551094,
            290.701
          ],
          [
            5.011273,
            45.551126,
            289.682
          ],
          [
            5.011355,
            45.551179,
            288.696
          ],
          [
            5.01141,
            45.551231,
            287.974
          ],
          [
            5.011447,
            45.551283,
            287.394
          ],
          [
            5.011467,
            45.551338,
            286.982
          ],
          [
            5.011466,
            45.5514,
            286.654
          ],
          [
            5.011449,
            45.551447,
            286.41
          ],
          [
            5.011413,
            45.551495,
            286.182
          ],
          [
            5.011307,
            45.551554,
            285.811
          ],
          [
            5.011214,
            45.551589,
            285.559
          ],
          [
            5.01049,
            45.551728,
            282.39
          ],
          [
            5.010611,
            45.551864,
            280.927
          ],
          [
            5.010694,
            45.551987,
            279.387
          ],
          [
            5.010735,
            45.552074,
            278.134
          ],
          [
            5.010912,
            45.552411,
            274.143
          ],
          [
            5.011065,
            45.55246,
            273.672
          ],
          [
            5.011244,
            45.552559,
            273.816
          ],
          [
            5.011363,
            45.552621,
            273.705
          ],
          [
            5.011571,
            45.552639,
            274.482
          ],
          [
            5.011741,
            45.552645,
            274.644
          ],
          [
            5.011902,
            45.552615,
            274.497
          ],
          [
            5.012418,
            45.552514,
            272.136
          ],
          [
            5.012566,
            45.552477,
            270.912
          ],
          [
            5.012644,
            45.552443,
            270.565
          ],
          [
            5.012712,
            45.552362,
            269.831
          ],
          [
            5.012746,
            45.552274,
            268.953
          ],
          [
            5.012784,
            45.552198,
            267.872
          ],
          [
            5.012843,
            45.552112,
            267.32
          ],
          [
            5.012909,
            45.552064,
            267.024
          ],
          [
            5.012982,
            45.552035,
            266.847
          ],
          [
            5.013152,
            45.552011,
            266.76
          ],
          [
            5.013325,
            45.551982,
            266.865
          ],
          [
            5.013381,
            45.551973,
            267.086
          ],
          [
            5.013534,
            45.551929,
            267.985
          ],
          [
            5.013688,
            45.551866,
            269.773
          ],
          [
            5.013965,
            45.551599,
            272.107
          ],
          [
            5.014004,
            45.551528,
            273.946
          ],
          [
            5.013995,
            45.551423,
            275.867
          ],
          [
            5.013829,
            45.551017,
            282.994
          ],
          [
            5.013814,
            45.550967,
            283.526
          ],
          [
            5.013805,
            45.550872,
            284.621
          ],
          [
            5.013829,
            45.550685,
            287.374
          ],
          [
            5.013902,
            45.550623,
            289.205
          ],
          [
            5.014174,
            45.550512,
            293.554
          ],
          [
            5.014366,
            45.550436,
            296.753
          ],
          [
            5.014525,
            45.550417,
            298.575
          ],
          [
            5.015005,
            45.550423,
            301.468
          ],
          [
            5.015109,
            45.550414,
            302.314
          ],
          [
            5.01519,
            45.550397,
            303.08
          ],
          [
            5.015264,
            45.550365,
            303.959
          ],
          [
            5.015434,
            45.550232,
            305.655
          ],
          [
            5.015642,
            45.550065,
            307.627
          ],
          [
            5.016262,
            45.549646,
            313.436
          ],
          [
            5.016396,
            45.549556,
            314.468
          ],
          [
            5.016493,
            45.549511,
            315.274
          ],
          [
            5.016825,
            45.549396,
            318.211
          ],
          [
            5.017061,
            45.549347,
            319.865
          ],
          [
            5.017338,
            45.549336,
            321.606
          ],
          [
            5.017598,
            45.54933,
            323.353
          ],
          [
            5.018013,
            45.549298,
            324.847
          ],
          [
            5.018716,
            45.549246,
            326.822
          ],
          [
            5.019133,
            45.549216,
            327.0
          ],
          [
            5.019431,
            45.549131,
            327.122
          ],
          [
            5.019602,
            45.549057,
            327.395
          ],
          [
            5.019809,
            45.548952,
            327.773
          ],
          [
            5.020326,
            45.548653,
            329.023
          ],
          [
            5.02096,
            45.548306,
            331.0
          ],
          [
            5.021749,
            45.547932,
            330.11
          ],
          [
            5.021878,
            45.5479,
            329.88
          ],
          [
            5.022371,
            45.547801,
            330.574
          ],
          [
            5.022705,
            45.547722,
            331.389
          ],
          [
            5.02313,
            45.547599,
            331.356
          ],
          [
            5.023714,
            45.547485,
            331.804
          ],
          [
            5.024176,
            45.547424,
            331.161
          ],
          [
            5.024385,
            45.547429,
            330.831
          ],
          [
            5.02481,
            45.547522,
            332.37
          ],
          [
            5.02492,
            45.547525,
            332.738
          ],
          [
            5.025157,
            45.547455,
            333.333
          ],
          [
            5.025322,
            45.5474,
            333.697
          ],
          [
            5.025728,
            45.547311,
            335.043
          ],
          [
            5.026041,
            45.547241,
            336.731
          ],
          [
            5.026304,
            45.547193,
            337.767
          ],
          [
            5.026581,
            45.547166,
            339.586
          ],
          [
            5.026811,
            45.547155,
            340.762
          ],
          [
            5.027054,
            45.547144,
            341.787
          ],
          [
            5.026934,
            45.546925,
            342.097
          ],
          [
            5.02682,
            45.546696,
            342.539
          ],
          [
            5.026707,
            45.546473,
            342.729
          ],
          [
            5.02661,
            45.546264,
            343.042
          ],
          [
            5.026437,
            45.545863,
            343.085
          ],
          [
            5.026394,
            45.545484,
            343.032
          ],
          [
            5.026403,
            45.54546,
            343.084
          ],
          [
            5.026633,
            45.545056,
            343.782
          ],
          [
            5.026663,
            45.54502,
            343.975
          ],
          [
            5.026716,
            45.544985,
            344.247
          ],
          [
            5.02683,
            45.544919,
            344.593
          ],
          [
            5.026925,
            45.544837,
            344.686
          ],
          [
            5.027147,
            45.544641,
            345.682
          ],
          [
            5.027181,
            45.54461,
            345.807
          ],
          [
            5.02724,
            45.544491,
            345.58
          ],
          [
            5.027314,
            45.544337,
            346.967
          ],
          [
            5.027321,
            45.544314,
            347.195
          ],
          [
            5.027321,
            45.544137,
            348.242
          ],
          [
            5.027326,
            45.543798,
            350.607
          ],
          [
            5.027315,
            45.54365,
            351.961
          ],
          [
            5.027323,
            45.543391,
            354.235
          ],
          [
            5.027313,
            45.543304,
            354.83
          ],
          [
            5.027272,
            45.543024,
            356.313
          ],
          [
            5.027278,
            45.542341,
            358.859
          ],
          [
            5.028197,
            45.542284,
            361.732
          ],
          [
            5.02932,
            45.542204,
            366.618
          ],
          [
            5.029398,
            45.542059,
            367.42
          ],
          [
            5.029417,
            45.542024,
            367.615
          ],
          [
            5.029594,
            45.541828,
            369.27
          ],
          [
            5.030086,
            45.541282,
            374.65
          ],
          [
            5.030621,
            45.540674,
            375.799
          ],
          [
            5.03103,
            45.540203,
            376.921
          ],
          [
            5.031127,
            45.54009,
            376.981
          ],
          [
            5.031164,
            45.539992,
            377.011
          ],
          [
            5.031186,
            45.539801,
            377.386
          ],
          [
            5.031195,
            45.539732,
            377.583
          ],
          [
            5.031222,
            45.539662,
            377.451
          ],
          [
            5.03126,
            45.539579,
            377.317
          ],
          [
            5.031422,
            45.539409,
            377.423
          ],
          [
            5.031975,
            45.538886,
            375.061
          ],
          [
            5.03212,
            45.538692,
            373.432
          ],
          [
            5.032218,
            45.538565,
            373.441
          ],
          [
            5.032271,
            45.538459,
            372.901
          ],
          [
            5.032336,
            45.538302,
            372.3
          ],
          [
            5.032508,
            45.537832,
            371.287
          ],
          [
            5.032524,
            45.537779,
            371.264
          ],
          [
            5.032634,
            45.537604,
            371.52
          ],
          [
            5.032741,
            45.537402,
            370.936
          ],
          [
            5.032937,
            45.536923,
            370.687
          ],
          [
            5.033045,
            45.536684,
            371.85
          ],
          [
            5.033122,
            45.536509,
            372.239
          ],
          [
            5.033154,
            45.536473,
            372.354
          ],
          [
            5.033422,
            45.536189,
            374.039
          ],
          [
            5.033675,
            45.535963,
            375.0
          ],
          [
            5.033788,
            45.535859,
            375.0
          ],
          [
            5.033851,
            45.535785,
            374.628
          ],
          [
            5.03399,
            45.535611,
            373.763
          ],
          [
            5.034013,
            45.535584,
            373.652
          ],
          [
            5.034234,
            45.535424,
            373.641
          ],
          [
            5.034258,
            45.535407,
            373.641
          ],
          [
            5.034268,
            45.535376,
            373.589
          ],
          [
            5.03428,
            45.535309,
            373.475
          ],
          [
            5.03428,
            45.53528,
            373.413
          ],
          [
            5.034268,
            45.535245,
            373.601
          ],
          [
            5.034245,
            45.535194,
            373.885
          ],
          [
            5.034227,
            45.535171,
            373.986
          ],
          [
            5.033864,
            45.534887,
            373.724
          ],
          [
            5.0338,
            45.534843,
            373.81
          ],
          [
            5.033728,
            45.534762,
            374.134
          ],
          [
            5.033625,
            45.534648,
            374.571
          ],
          [
            5.033529,
            45.534538,
            375.13
          ],
          [
            5.033485,
            45.53446,
            375.459
          ],
          [
            5.03336,
            45.534224,
            375.89
          ],
          [
            5.033348,
            45.534199,
            375.936
          ],
          [
            5.033318,
            45.53402,
            377.001
          ],
          [
            5.032999,
            45.533879,
            376.86
          ],
          [
            5.032707,
            45.533702,
            376.163
          ],
          [
            5.032417,
            45.533449,
            375.52
          ],
          [
            5.032114,
            45.533037,
            374.221
          ],
          [
            5.030883,
            45.531295,
            368.396
          ],
          [
            5.03064,
            45.531293,
            368.345
          ],
          [
            5.030423,
            45.531305,
            368.302
          ],
          [
            5.030089,
            45.531369,
            368.703
          ],
          [
            5.029764,
            45.531425,
            368.87
          ],
          [
            5.029131,
            45.531641,
            368.197
          ],
          [
            5.02895,
            45.531697,
            368.695
          ],
          [
            5.028317,
            45.531863,
            368.335
          ],
          [
            5.027698,
            45.532017,
            368.765
          ],
          [
            5.027365,
            45.53209,
            369.693
          ],
          [
            5.027202,
            45.532116,
            370.5
          ],
          [
            5.027044,
            45.532289,
            370.802
          ],
          [
            5.026701,
            45.532793,
            370.698
          ],
          [
            5.02648,
            45.533103,
            370.445
          ],
          [
            5.026382,
            45.533195,
            370.523
          ],
          [
            5.026225,
            45.533289,
            370.75
          ],
          [
            5.026216,
            45.533725,
            366.392
          ],
          [
            5.026216,
            45.533909,
            364.378
          ],
          [
            5.026256,
            45.533992,
            363.171
          ],
          [
            5.026373,
            45.534051,
            361.756
          ],
          [
            5.026592,
            45.534154,
            359.451
          ],
          [
            5.026741,
            45.534222,
            358.081
          ],
          [
            5.02693,
            45.534362,
            355.276
          ],
          [
            5.026955,
            45.534423,
            354.163
          ],
          [
            5.026966,
            45.53449,
            352.529
          ],
          [
            5.026942,
            45.534617,
            349.669
          ],
          [
            5.026921,
            45.534714,
            347.376
          ],
          [
            5.026913,
            45.53481,
            346.034
          ],
          [
            5.026966,
            45.534888,
            344.317
          ],
          [
            5.027179,
            45.534981,
            340.625
          ],
          [
            5.027224,
            45.535057,
            339.373
          ],
          [
            5.027226,
            45.535145,
            338.414
          ],
          [
            5.027061,
            45.535336,
            338.2
          ],
          [
            5.026778,
            45.535658,
            338.356
          ],
          [
            5.026768,
            45.535684,
            338.318
          ],
          [
            5.026743,
            45.535844,
            337.687
          ],
          [
            5.026684,
            45.535927,
            337.6
          ],
          [
            5.026237,
            45.536551,
            338.51
          ],
          [
            5.026208,
            45.536633,
            338.424
          ],
          [
            5.026124,
            45.536909,
            337.122
          ],
          [
            5.026102,
            45.536979,
            336.85
          ],
          [
            5.025754,
            45.537741,
            339.086
          ],
          [
            5.025731,
            45.537786,
            339.444
          ],
          [
            5.025672,
            45.537844,
            340.085
          ],
          [
            5.025552,
            45.537936,
            341.462
          ],
          [
            5.025339,
            45.538077,
            342.388
          ],
          [
            5.025332,
            45.538157,
            341.808
          ],
          [
            5.025309,
            45.538317,
            340.787
          ],
          [
            5.025297,
            45.538383,
            340.09
          ],
          [
            5.025257,
            45.538531,
            338.207
          ],
          [
            5.02525,
            45.538571,
            337.663
          ],
          [
            5.025259,
            45.538589,
            337.381
          ],
          [
            5.02543,
            45.538712,
            334.814
          ],
          [
            5.025455,
            45.538735,
            334.386
          ],
          [
            5.025481,
            45.538773,
            333.788
          ],
          [
            5.025509,
            45.538836,
            332.906
          ],
          [
            5.025528,
            45.538883,
            332.262
          ],
          [
            5.025534,
            45.538956,
            330.966
          ],
          [
            5.025522,
            45.539024,
            329.868
          ],
          [
            5.025497,
            45.539081,
            329.109
          ],
          [
            5.025431,
            45.539145,
            328.7
          ],
          [
            5.025376,
            45.5392,
            327.654
          ],
          [
            5.025298,
            45.539244,
            326.957
          ],
          [
            5.025186,
            45.539312,
            325.114
          ],
          [
            5.025137,
            45.539337,
            324.49
          ],
          [
            5.024968,
            45.539389,
            323.597
          ],
          [
            5.024865,
            45.539411,
            322.963
          ],
          [
            5.024734,
            45.539434,
            322.301
          ],
          [
            5.02459,
            45.539457,
            320.846
          ],
          [
            5.024439,
            45.539482,
            318.921
          ],
          [
            5.024276,
            45.539509,
            316.118
          ],
          [
            5.02407,
            45.539545,
            313.56
          ],
          [
            5.023985,
            45.539558,
            312.975
          ],
          [
            5.023856,
            45.539568,
            312.052
          ],
          [
            5.023746,
            45.539564,
            310.495
          ],
          [
            5.023623,
            45.53955,
            308.912
          ],
          [
            5.023518,
            45.539506,
            307.882
          ],
          [
            5.023454,
            45.539463,
            307.319
          ],
          [
            5.023395,
            45.539398,
            306.926
          ],
          [
            5.023323,
            45.539293,
            305.864
          ],
          [
            5.023238,
            45.539126,
            304.598
          ],
          [
            5.023183,
            45.539024,
            303.212
          ],
          [
            5.023156,
            45.538979,
            302.531
          ],
          [
            5.023114,
            45.538935,
            301.473
          ],
          [
            5.023052,
            45.538903,
            299.937
          ],
          [
            5.022978,
            45.538882,
            298.629
          ],
          [
            5.022868,
            45.53888,
            296.656
          ],
          [
            5.022718,
            45.538904,
            294.123
          ],
          [
            5.022617,
            45.538956,
            292.087
          ],
          [
            5.022549,
            45.539037,
            289.604
          ],
          [
            5.022506,
            45.539134,
            286.789
          ],
          [
            5.022475,
            45.539243,
            284.95
          ],
          [
            5.022462,
            45.539352,
            283.514
          ],
          [
            5.022473,
            45.539556,
            281.715
          ],
          [
            5.022479,
            45.539667,
            281.229
          ],
          [
            5.022475,
            45.539702,
            281.086
          ],
          [
            5.022461,
            45.539758,
            280.742
          ],
          [
            5.022458,
            45.539821,
            280.289
          ],
          [
            5.022469,
            45.539991,
            279.065
          ],
          [
            5.022469,
            45.54001,
            279.072
          ],
          [
            5.02245,
            45.540036,
            279.259
          ],
          [
            5.02243,
            45.540066,
            279.475
          ],
          [
            5.022416,
            45.540082,
            279.59
          ],
          [
            5.022392,
            45.540101,
            279.727
          ],
          [
            5.022318,
            45.540133,
            279.958
          ],
          [
            5.022275,
            45.540139,
            280.001
          ],
          [
            5.022196,
            45.540144,
            279.939
          ],
          [
            5.022172,
            45.540148,
            279.873
          ],
          [
            5.021823,
            45.540349,
            280.032
          ],
          [
            5.021567,
            45.540501,
            281.699
          ],
          [
            5.021439,
            45.540556,
            280.097
          ],
          [
            5.02124,
            45.54064,
            280.338
          ],
          [
            5.020816,
            45.540794,
            279.264
          ],
          [
            5.020326,
            45.540961,
            278.944
          ],
          [
            5.020268,
            45.540979,
            279.105
          ],
          [
            5.019943,
            45.541129,
            278.36
          ],
          [
            5.019792,
            45.541216,
            277.522
          ],
          [
            5.0197,
            45.54129,
            277.526
          ],
          [
            5.019367,
            45.541649,
            276.684
          ],
          [
            5.019302,
            45.541701,
            276.507
          ],
          [
            5.019221,
            45.541748,
            276.189
          ],
          [
            5.018932,
            45.54182,
            275.915
          ],
          [
            5.018219,
            45.541982,
            274.75
          ],
          [
            5.018072,
            45.542017,
            275.164
          ],
          [
            5.017962,
            45.542025,
            274.886
          ],
          [
            5.017828,
            45.542036,
            274.548
          ],
          [
            5.017697,
            45.542047,
            274.294
          ],
          [
            5.017563,
            45.542025,
            273.257
          ],
          [
            5.017391,
            45.542002,
            272.532
          ],
          [
            5.017254,
            45.541985,
            272.151
          ],
          [
            5.016928,
            45.541969,
            271.214
          ],
          [
            5.016139,
            45.541929,
            269.039
          ],
          [
            5.016131,
            45.541963,
            269.697
          ],
          [
            5.01608,
            45.542008,
            270.707
          ],
          [
            5.016029,
            45.54204,
            270.996
          ],
          [
            5.015986,
            45.542094,
            271.732
          ],
          [
            5.015932,
            45.542138,
            271.735
          ],
          [
            5.015774,
            45.54226,
            271.768
          ],
          [
            5.015626,
            45.54235,
            272.791
          ],
          [
            5.015398,
            45.542495,
            272.504
          ],
          [
            5.015253,
            45.542581,
            272.065
          ],
          [
            5.014738,
            45.542872,
            271.128
          ],
          [
            5.014494,
            45.543026,
            270.781
          ],
          [
            5.014199,
            45.543222,
            270.161
          ],
          [
            5.013599,
            45.54364,
            264.311
          ],
          [
            5.013593,
            45.543719,
            265.322
          ],
          [
            5.013561,
            45.543811,
            265.998
          ],
          [
            5.013413,
            45.54417,
            265.738
          ],
          [
            5.013204,
            45.544692,
            264.148
          ],
          [
            5.013065,
            45.545064,
            261.665
          ],
          [
            5.013016,
            45.545207,
            261.851
          ],
          [
            5.01299,
            45.545549,
            262.05
          ],
          [
            5.012963,
            45.545767,
            263.19
          ],
          [
            5.012912,
            45.54606,
            262.777
          ],
          [
            5.01288,
            45.546233,
            262.221
          ],
          [
            5.012721,
            45.546642,
            259.201
          ],
          [
            5.012698,
            45.546735,
            259.273
          ],
          [
            5.012658,
            45.547007,
            260.1
          ],
          [
            5.012632,
            45.547196,
            260.237
          ],
          [
            5.01259,
            45.547542,
            262.12
          ],
          [
            5.012461,
            45.547675,
            260.062
          ],
          [
            5.012418,
            45.547779,
            260.864
          ],
          [
            5.012303,
            45.547867,
            261.651
          ],
          [
            5.011227,
            45.548023,
            255.368
          ],
          [
            5.01093,
            45.548062,
            254.434
          ],
          [
            5.010546,
            45.548139,
            253.955
          ],
          [
            5.010219,
            45.548168,
            252.807
          ],
          [
            5.01021,
            45.548159,
            252.872
          ],
          [
            5.010479,
            45.547382,
            255.659
          ],
          [
            5.010732,
            45.547064,
            256.416
          ],
          [
            5.010902,
            45.546876,
            256.617
          ],
          [
            5.01094,
            45.54682,
            257.0
          ],
          [
            5.011416,
            45.545748,
            258.277
          ],
          [
            5.011472,
            45.54546,
            259.045
          ],
          [
            5.011483,
            45.54521,
            259.984
          ],
          [
            5.011458,
            45.544835,
            261.401
          ],
          [
            5.011375,
            45.544504,
            262.25
          ],
          [
            5.011339,
            45.544157,
            263.545
          ],
          [
            5.011331,
            45.543889,
            263.834
          ],
          [
            5.011453,
            45.543549,
            265.806
          ],
          [
            5.011236,
            45.543021,
            271.819
          ],
          [
            5.01121,
            45.542958,
            272.307
          ],
          [
            5.011141,
            45.542823,
            272.947
          ],
          [
            5.011084,
            45.542638,
            275.745
          ],
          [
            5.011008,
            45.542333,
            282.306
          ],
          [
            5.010959,
            45.542038,
            287.628
          ],
          [
            5.010968,
            45.54163,
            293.422
          ],
          [
            5.010868,
            45.541488,
            295.197
          ],
          [
            5.010863,
            45.541418,
            295.768
          ],
          [
            5.011217,
            45.54105,
            302.533
          ],
          [
            5.01138,
            45.540674,
            310.162
          ],
          [
            5.011474,
            45.540272,
            318.922
          ],
          [
            5.011732,
            45.539891,
            321.926
          ],
          [
            5.012295,
            45.539741,
            324.956
          ],
          [
            5.01255,
            45.539647,
            326.674
          ],
          [
            5.012743,
            45.539479,
            326.987
          ],
          [
            5.013116,
            45.539064,
            329.252
          ],
          [
            5.013246,
            45.539002,
            328.78
          ],
          [
            5.013354,
            45.538792,
            331.092
          ],
          [
            5.013593,
            45.538563,
            331.788
          ],
          [
            5.013706,
            45.538292,
            334.642
          ],
          [
            5.013776,
            45.537227,
            339.414
          ],
          [
            5.013947,
            45.536663,
            339.575
          ],
          [
            5.013821,
            45.536342,
            345.752
          ],
          [
            5.013628,
            45.536015,
            351.577
          ],
          [
            5.013639,
            45.535895,
            351.431
          ],
          [
            5.013808,
            45.535622,
            353.656
          ],
          [
            5.013966,
            45.535305,
            356.499
          ],
          [
            5.014044,
            45.535006,
            356.874
          ],
          [
            5.014052,
            45.534828,
            356.098
          ],
          [
            5.014137,
            45.534414,
            357.107
          ],
          [
            5.014241,
            45.534164,
            355.932
          ],
          [
            5.014391,
            45.533612,
            355.382
          ],
          [
            5.014465,
            45.533172,
            356.445
          ],
          [
            5.01457,
            45.53315,
            355.901
          ],
          [
            5.014785,
            45.533068,
            355.64
          ],
          [
            5.015374,
            45.532963,
            356.68
          ],
          [
            5.015506,
            45.532918,
            357.317
          ],
          [
            5.015931,
            45.532691,
            358.664
          ],
          [
            5.016444,
            45.532168,
            362.394
          ],
          [
            5.016301,
            45.531997,
            362.178
          ],
          [
            5.015952,
            45.532055,
            360.257
          ],
          [
            5.01476,
            45.532254,
            358.0
          ],
          [
            5.014529,
            45.532327,
            358.0
          ],
          [
            5.014397,
            45.532398,
            358.0
          ],
          [
            5.01432,
            45.532439,
            358.0
          ],
          [
            5.013959,
            45.5327,
            357.818
          ],
          [
            5.013746,
            45.532838,
            357.38
          ],
          [
            5.013729,
            45.532873,
            357.279
          ],
          [
            5.013539,
            45.532959,
            356.831
          ],
          [
            5.013343,
            45.533,
            356.228
          ],
          [
            5.012858,
            45.533189,
            354.661
          ],
          [
            5.01259,
            45.533367,
            355.527
          ],
          [
            5.012267,
            45.533569,
            355.019
          ],
          [
            5.012206,
            45.533724,
            355.754
          ],
          [
            5.011945,
            45.533788,
            355.276
          ],
          [
            5.011852,
            45.533808,
            355.515
          ],
          [
            5.011356,
            45.533841,
            356.118
          ],
          [
            5.00749,
            45.533668,
            354.205
          ],
          [
            5.005778,
            45.533538,
            352.737
          ],
          [
            5.005292,
            45.533533,
            352.719
          ],
          [
            5.004691,
            45.533496,
            352.0
          ],
          [
            5.004326,
            45.533435,
            352.0
          ],
          [
            5.00374,
            45.533325,
            351.03
          ],
          [
            5.00334,
            45.53327,
            351.005
          ],
          [
            5.003471,
            45.533559,
            350.59
          ],
          [
            5.00352,
            45.533739,
            350.212
          ],
          [
            5.00353,
            45.533776,
            350.114
          ],
          [
            5.003558,
            45.533918,
            349.769
          ],
          [
            5.003591,
            45.534084,
            349.826
          ],
          [
            5.003591,
            45.534401,
            349.844
          ],
          [
            5.003699,
            45.534536,
            349.67
          ],
          [
            5.003795,
            45.534702,
            349.073
          ],
          [
            5.00387,
            45.534848,
            348.547
          ],
          [
            5.003917,
            45.534976,
            348.086
          ],
          [
            5.003983,
            45.535115,
            347.172
          ],
          [
            5.004112,
            45.535264,
            346.099
          ],
          [
            5.00416,
            45.535435,
            346.512
          ],
          [
            5.004105,
            45.535516,
            346.096
          ],
          [
            5.004044,
            45.535569,
            345.298
          ],
          [
            5.004079,
            45.535649,
            346.056
          ],
          [
            5.004192,
            45.535675,
            347.052
          ],
          [
            5.004562,
            45.535637,
            347.459
          ],
          [
            5.004986,
            45.535607,
            347.093
          ],
          [
            5.005311,
            45.53559,
            347.906
          ],
          [
            5.006133,
            45.535549,
            350.225
          ],
          [
            5.006032,
            45.535724,
            350.494
          ],
          [
            5.005935,
            45.535833,
            350.998
          ],
          [
            5.00561,
            45.536252,
            350.788
          ],
          [
            5.005522,
            45.536366,
            349.952
          ],
          [
            5.005351,
            45.536487,
            349.264
          ],
          [
            5.00497,
            45.53672,
            347.979
          ],
          [
            5.005115,
            45.536907,
            348.056
          ],
          [
            5.005199,
            45.537038,
            347.663
          ],
          [
            5.005392,
            45.537286,
            347.317
          ],
          [
            5.005635,
            45.53755,
            347.235
          ],
          [
            5.005726,
            45.537689,
            347.196
          ],
          [
            5.005839,
            45.537832,
            346.825
          ],
          [
            5.005903,
            45.537945,
            346.649
          ],
          [
            5.005991,
            45.53799,
            346.804
          ],
          [
            5.00583,
            45.538012,
            346.157
          ],
          [
            5.005662,
            45.538,
            346.2
          ],
          [
            5.005519,
            45.537998,
            346.18
          ],
          [
            5.00506,
            45.538007,
            345.216
          ],
          [
            5.004838,
            45.538012,
            344.417
          ],
          [
            5.004396,
            45.538012,
            341.982
          ],
          [
            5.004232,
            45.53799,
            341.471
          ],
          [
            5.00404,
            45.538055,
            340.091
          ],
          [
            5.003965,
            45.538053,
            339.564
          ],
          [
            5.003711,
            45.538017,
            337.534
          ],
          [
            5.003588,
            45.537983,
            336.777
          ],
          [
            5.003482,
            45.537978,
            335.647
          ],
          [
            5.003284,
            45.538024,
            332.775
          ],
          [
            5.002859,
            45.537988,
            332.216
          ],
          [
            5.002702,
            45.537998,
            331.121
          ],
          [
            5.002568,
            45.538036,
            329.684
          ],
          [
            5.002418,
            45.538043,
            329.526
          ],
          [
            5.001491,
            45.538281,
            323.704
          ],
          [
            5.001283,
            45.538356,
            321.232
          ],
          [
            5.001074,
            45.538372,
            318.543
          ],
          [
            5.001027,
            45.538342,
            318.801
          ],
          [
            5.000999,
            45.538236,
            317.593
          ],
          [
            5.00098,
            45.538203,
            316.618
          ],
          [
            5.000938,
            45.538202,
            315.034
          ],
          [
            5.000826,
            45.538312,
            312.366
          ],
          [
            5.000767,
            45.538389,
            308.361
          ],
          [
            5.00075,
            45.538434,
            306.636
          ],
          [
            5.000702,
            45.538448,
            305.045
          ],
          [
            5.000683,
            45.538434,
            304.724
          ],
          [
            5.000665,
            45.5384,
            304.518
          ],
          [
            5.000638,
            45.538377,
            303.677
          ],
          [
            5.000608,
            45.538374,
            302.507
          ],
          [
            5.000608,
            45.538422,
            302.568
          ],
          [
            5.00048,
            45.538491,
            302.497
          ],
          [
            5.000418,
            45.538488,
            303.201
          ],
          [
            5.00041,
            45.538441,
            304.201
          ],
          [
            5.000354,
            45.538356,
            308.005
          ],
          [
            5.000175,
            45.538458,
            308.016
          ],
          [
            5.000108,
            45.538455,
            309.362
          ],
          [
            4.999733,
            45.538363,
            316.675
          ],
          [
            4.999658,
            45.538299,
            318.415
          ],
          [
            4.999579,
            45.53827,
            318.742
          ],
          [
            4.999464,
            45.53825,
            318.849
          ],
          [
            4.999323,
            45.538202,
            320.067
          ],
          [
            4.998902,
            45.538094,
            322.176
          ],
          [
            4.998841,
            45.538068,
            322.567
          ],
          [
            4.998746,
            45.537943,
            323.91
          ],
          [
            4.99857,
            45.537672,
            327.199
          ],
          [
            4.998527,
            45.537578,
            328.375
          ],
          [
            4.998465,
            45.53751,
            329.399
          ],
          [
            4.998364,
            45.537477,
            330.147
          ],
          [
            4.998281,
            45.53741,
            331.033
          ],
          [
            4.99821,
            45.537337,
            332.021
          ],
          [
            4.998153,
            45.537214,
            333.778
          ],
          [
            4.998127,
            45.537134,
            335.095
          ],
          [
            4.998003,
            45.537002,
            337.171
          ],
          [
            4.997928,
            45.536803,
            339.803
          ],
          [
            4.997803,
            45.536682,
            340.92
          ],
          [
            4.997674,
            45.536506,
            342.157
          ],
          [
            4.997649,
            45.536471,
            342.409
          ],
          [
            4.997456,
            45.53611,
            341.991
          ],
          [
            4.996909,
            45.536095,
            340.819
          ],
          [
            4.99638,
            45.536152,
            341.093
          ],
          [
            4.996242,
            45.536181,
            340.46
          ],
          [
            4.996136,
            45.53626,
            340.691
          ],
          [
            4.996086,
            45.536367,
            341.666
          ],
          [
            4.996119,
            45.536676,
            340.96
          ],
          [
            4.99606,
            45.536812,
            339.954
          ],
          [
            4.995794,
            45.536945,
            339.135
          ],
          [
            4.992524,
            45.537621,
            328.178
          ],
          [
            4.991779,
            45.537776,
            327.006
          ],
          [
            4.991897,
            45.537817,
            326.576
          ],
          [
            4.991243,
            45.538325,
            321.629
          ],
          [
            4.99096,
            45.538513,
            319.413
          ],
          [
            4.990947,
            45.538662,
            317.009
          ],
          [
            4.990787,
            45.539007,
            310.687
          ],
          [
            4.990565,
            45.539092,
            310.285
          ],
          [
            4.990113,
            45.539319,
            307.526
          ],
          [
            4.990051,
            45.539446,
            304.971
          ],
          [
            4.989812,
            45.539751,
            299.586
          ],
          [
            4.989346,
            45.540231,
            292.796
          ],
          [
            4.989158,
            45.540401,
            290.078
          ],
          [
            4.98894,
            45.540523,
            289.043
          ],
          [
            4.988471,
            45.540698,
            287.013
          ],
          [
            4.988043,
            45.540892,
            287.717
          ],
          [
            4.987797,
            45.541033,
            286.758
          ],
          [
            4.987616,
            45.541168,
            285.426
          ],
          [
            4.987348,
            45.541401,
            282.913
          ],
          [
            4.987144,
            45.541525,
            281.733
          ],
          [
            4.986876,
            45.541612,
            280.608
          ],
          [
            4.986463,
            45.541698,
            277.597
          ],
          [
            4.985921,
            45.541867,
            272.25
          ],
          [
            4.985535,
            45.541961,
            267.52
          ],
          [
            4.985234,
            45.541969,
            262.226
          ],
          [
            4.985025,
            45.54204,
            258.763
          ],
          [
            4.984757,
            45.54216,
            252.26
          ],
          [
            4.984612,
            45.542277,
            249.662
          ],
          [
            4.984569,
            45.542404,
            247.605
          ],
          [
            4.984521,
            45.542619,
            249.659
          ],
          [
            4.984472,
            45.542698,
            252.232
          ],
          [
            4.984354,
            45.542731,
            254.026
          ],
          [
            4.984263,
            45.542818,
            257.666
          ],
          [
            4.984263,
            45.542998,
            263.749
          ],
          [
            4.98429,
            45.543276,
            265.006
          ],
          [
            4.984397,
            45.54355,
            266.05
          ],
          [
            4.984499,
            45.543885,
            270.351
          ],
          [
            4.984687,
            45.544313,
            276.394
          ],
          [
            4.984923,
            45.544617,
            281.38
          ],
          [
            4.98503,
            45.544734,
            283.095
          ],
          [
            4.985036,
            45.544832,
            284.744
          ],
          [
            4.984955,
            45.544907,
            286.434
          ],
          [
            4.98481,
            45.544967,
            288.009
          ],
          [
            4.98458,
            45.545034,
            289.919
          ],
          [
            4.984022,
            45.545125,
            295.478
          ],
          [
            4.983646,
            45.545053,
            295.312
          ],
          [
            4.983042,
            45.544954,
            292.914
          ],
          [
            4.982917,
            45.544953,
            293.568
          ],
          [
            4.98282,
            45.54497,
            294.367
          ],
          [
            4.982772,
            45.544979,
            294.658
          ],
          [
            4.982455,
            45.545087,
            293.695
          ],
          [
            4.981999,
            45.545342,
            292.791
          ],
          [
            4.981291,
            45.545726,
            291.875
          ],
          [
            4.980975,
            45.545861,
            291.91
          ],
          [
            4.980573,
            45.545925,
            289.806
          ],
          [
            4.980111,
            45.545951,
            284.446
          ],
          [
            4.979811,
            45.546026,
            280.874
          ],
          [
            4.979532,
            45.546143,
            276.655
          ],
          [
            4.97936,
            45.546248,
            274.431
          ],
          [
            4.979242,
            45.546387,
            273.083
          ],
          [
            4.979097,
            45.546624,
            271.421
          ],
          [
            4.97898,
            45.546702,
            270.698
          ],
          [
            4.979594,
            45.54662,
            278.154
          ],
          [
            4.980093,
            45.546563,
            286.339
          ],
          [
            4.980323,
            45.546537,
            289.488
          ],
          [
            4.981198,
            45.546417,
            303.111
          ],
          [
            4.981847,
            45.546353,
            311.913
          ],
          [
            4.982726,
            45.546231,
            315.245
          ],
          [
            4.983633,
            45.546124,
            315.95
          ],
          [
            4.983939,
            45.546115,
            315.792
          ],
          [
            4.984172,
            45.546141,
            314.746
          ],
          [
            4.984384,
            45.546128,
            313.314
          ],
          [
            4.984607,
            45.546094,
            311.085
          ],
          [
            4.985331,
            45.546052,
            304.491
          ],
          [
            4.985383,
            45.546086,
            305.045
          ],
          [
            4.985496,
            45.546111,
            305.212
          ],
          [
            4.985808,
            45.546122,
            305.078
          ],
          [
            4.986051,
            45.546149,
            306.056
          ],
          [
            4.987017,
            45.546183,
            310.935
          ],
          [
            4.987799,
            45.546282,
            310.971
          ],
          [
            4.988367,
            45.546324,
            310.009
          ],
          [
            4.988612,
            45.546367,
            310.527
          ],
          [
            4.988861,
            45.546451,
            310.553
          ],
          [
            4.989102,
            45.546428,
            310.718
          ],
          [
            4.989449,
            45.546322,
            311.061
          ],
          [
            4.989728,
            45.546221,
            311.816
          ],
          [
            4.989956,
            45.546106,
            312.567
          ],
          [
            4.990436,
            45.545868,
            314.816
          ],
          [
            4.990624,
            45.545789,
            314.735
          ],
          [
            4.990817,
            45.545725,
            314.671
          ],
          [
            4.991031,
            45.545684,
            314.082
          ],
          [
            4.991353,
            45.545706,
            314.864
          ],
          [
            4.991627,
            45.545706,
            316.446
          ],
          [
            4.992115,
            45.545733,
            318.828
          ],
          [
            4.99226,
            45.545706,
            319.074
          ],
          [
            4.992619,
            45.545552,
            319.428
          ],
          [
            4.992684,
            45.545541,
            319.662
          ],
          [
            4.992823,
            45.545612,
            320.163
          ],
          [
            4.993032,
            45.545706,
            320.915
          ],
          [
            4.993231,
            45.545781,
            321.0
          ],
          [
            4.993429,
            45.545834,
            321.344
          ],
          [
            4.993912,
            45.545935,
            321.634
          ],
          [
            4.994132,
            45.545966,
            321.522
          ],
          [
            4.994384,
            45.545966,
            321.896
          ],
          [
            4.994926,
            45.545943,
            322.444
          ],
          [
            4.995121,
            45.54591,
            322.724
          ],
          [
            4.99526,
            45.545951,
            322.576
          ],
          [
            4.995453,
            45.546128,
            322.0
          ],
          [
            4.995539,
            45.546334,
            322.0
          ],
          [
            4.99562,
            45.546603,
            320.405
          ],
          [
            4.995697,
            45.546848,
            319.335
          ],
          [
            4.995777,
            45.547087,
            316.665
          ],
          [
            4.995936,
            45.547445,
            311.929
          ],
          [
            4.995992,
            45.547629,
            309.843
          ],
          [
            4.995997,
            45.547652,
            309.595
          ],
          [
            4.996014,
            45.547719,
            308.796
          ],
          [
            4.996022,
            45.547893,
            307.549
          ],
          [
            4.996043,
            45.547957,
            306.584
          ],
          [
            4.996521,
            45.548408,
            301.648
          ],
          [
            4.996899,
            45.548679,
            298.06
          ],
          [
            4.997014,
            45.548733,
            296.986
          ],
          [
            4.997202,
            45.548765,
            294.913
          ],
          [
            4.997318,
            45.548816,
            292.454
          ],
          [
            4.997414,
            45.54888,
            290.381
          ],
          [
            4.997698,
            45.549109,
            285.988
          ],
          [
            4.997782,
            45.549148,
            282.179
          ],
          [
            4.998229,
            45.54928,
            279.88
          ],
          [
            4.998702,
            45.549462,
            267.336
          ],
          [
            4.999045,
            45.549621,
            263.74
          ],
          [
            4.999251,
            45.549766,
            260.738
          ],
          [
            4.999538,
            45.550018,
            256.261
          ],
          [
            4.999741,
            45.550136,
            253.395
          ],
          [
            4.999732,
            45.550217,
            252.606
          ],
          [
            4.999702,
            45.550287,
            252.286
          ],
          [
            4.999662,
            45.55034,
            252.393
          ],
          [
            4.999593,
            45.550411,
            252.251
          ],
          [
            4.999514,
            45.550478,
            251.605
          ],
          [
            4.999501,
            45.550514,
            250.895
          ],
          [
            4.999504,
            45.55078,
            247.403
          ],
          [
            4.999445,
            45.551181,
            243.746
          ],
          [
            4.999455,
            45.551238,
            243.505
          ],
          [
            4.999596,
            45.551456,
            241.62
          ],
          [
            4.999646,
            45.551495,
            241.024
          ],
          [
            4.999753,
            45.551481,
            240.931
          ],
          [
            4.999879,
            45.551489,
            240.558
          ],
          [
            5.000024,
            45.551508,
            240.179
          ],
          [
            5.000118,
            45.551525,
            240.228
          ],
          [
            5.00023,
            45.551564,
            240.261
          ],
          [
            5.000835,
            45.55182,
            239.897
          ],
          [
            5.000866,
            45.551829,
            239.851
          ],
          [
            5.000835,
            45.55182,
            239.897
          ],
          [
            5.001014,
            45.551532,
            240.98
          ],
          [
            5.001297,
            45.551078,
            244.596
          ],
          [
            5.001569,
            45.550774,
            246.902
          ],
          [
            5.001964,
            45.550423,
            250.718
          ],
          [
            5.002165,
            45.550144,
            253.675
          ],
          [
            5.002303,
            45.549856,
            252.334
          ],
          [
            5.002355,
            45.549802,
            252.682
          ],
          [
            5.002423,
            45.549732,
            252.382
          ],
          [
            5.002572,
            45.549664,
            253.869
          ],
          [
            5.002788,
            45.549607,
            256.114
          ],
          [
            5.002992,
            45.549533,
            257.086
          ],
          [
            5.003348,
            45.549356,
            258.586
          ],
          [
            5.003711,
            45.549145,
            259.355
          ],
          [
            5.003763,
            45.549086,
            260.061
          ],
          [
            5.003834,
            45.548904,
            259.395
          ],
          [
            5.003933,
            45.548562,
            258.317
          ],
          [
            5.004418,
            45.547304,
            262.277
          ],
          [
            5.004523,
            45.546954,
            265.092
          ],
          [
            5.00478,
            45.544781,
            278.449
          ],
          [
            5.004775,
            45.544535,
            279.418
          ],
          [
            5.004875,
            45.544181,
            282.812
          ],
          [
            5.004922,
            45.543982,
            283.705
          ],
          [
            5.004911,
            45.543626,
            287.803
          ],
          [
            5.004879,
            45.543348,
            290.429
          ],
          [
            5.004986,
            45.543317,
            291.176
          ],
          [
            5.005045,
            45.543513,
            290.356
          ],
          [
            5.005163,
            45.543671,
            292.212
          ],
          [
            5.005324,
            45.543701,
            296.401
          ],
          [
            5.005453,
            45.543592,
            299.447
          ],
          [
            5.005533,
            45.543235,
            306.494
          ],
          [
            5.005737,
            45.542728,
            317.814
          ],
          [
            5.005876,
            45.542671,
            320.904
          ],
          [
            5.006197,
            45.542648,
            324.553
          ],
          [
            5.006311,
            45.542641,
            325.424
          ],
          [
            5.006585,
            45.542667,
            326.504
          ],
          [
            5.006794,
            45.542656,
            326.877
          ],
          [
            5.006931,
            45.543115,
            324.534
          ],
          [
            5.006861,
            45.543354,
            322.881
          ],
          [
            5.00711,
            45.543806,
            320.88
          ],
          [
            5.007184,
            45.544156,
            321.796
          ],
          [
            5.007266,
            45.544739,
            321.792
          ],
          [
            5.007283,
            45.545135,
            321.0
          ],
          [
            5.007145,
            45.545815,
            320.722
          ],
          [
            5.007054,
            45.54642,
            319.0
          ],
          [
            5.006944,
            45.546971,
            318.903
          ],
          [
            5.007063,
            45.547242,
            317.898
          ],
          [
            5.007087,
            45.547425,
            316.895
          ],
          [
            5.007024,
            45.547567,
            315.955
          ],
          [
            5.007001,
            45.54762,
            315.581
          ],
          [
            5.006982,
            45.547836,
            313.219
          ],
          [
            5.006955,
            45.547905,
            312.485
          ],
          [
            5.006938,
            45.547922,
            312.474
          ],
          [
            5.00692,
            45.547987,
            311.543
          ],
          [
            5.006876,
            45.548025,
            311.481
          ],
          [
            5.006834,
            45.548095,
            311.022
          ],
          [
            5.00682,
            45.548138,
            310.605
          ],
          [
            5.006839,
            45.548174,
            309.813
          ],
          [
            5.006766,
            45.548294,
            309.136
          ],
          [
            5.006747,
            45.548313,
            309.136
          ],
          [
            5.006735,
            45.548364,
            308.658
          ],
          [
            5.00674,
            45.548444,
            307.644
          ],
          [
            5.006779,
            45.548493,
            306.426
          ],
          [
            5.006781,
            45.54851,
            306.184
          ],
          [
            5.006749,
            45.548553,
            306.208
          ],
          [
            5.006725,
            45.548658,
            305.008
          ],
          [
            5.006647,
            45.548666,
            305.828
          ],
          [
            5.006597,
            45.548783,
            303.442
          ],
          [
            5.006698,
            45.548842,
            301.636
          ],
          [
            5.006732,
            45.548976,
            299.04
          ],
          [
            5.006686,
            45.548993,
            299.292
          ],
          [
            5.006707,
            45.549073,
            297.913
          ],
          [
            5.006688,
            45.5491,
            297.73
          ],
          [
            5.006688,
            45.549123,
            297.398
          ],
          [
            5.006662,
            45.549137,
            297.429
          ],
          [
            5.006634,
            45.549273,
            294.748
          ],
          [
            5.006638,
            45.549372,
            292.641
          ],
          [
            5.006542,
            45.549616,
            287.466
          ],
          [
            5.006501,
            45.54966,
            286.478
          ],
          [
            5.006431,
            45.549717,
            285.129
          ],
          [
            5.00635,
            45.549746,
            284.638
          ],
          [
            5.006301,
            45.549818,
            283.357
          ],
          [
            5.006269,
            45.549836,
            283.151
          ],
          [
            5.006237,
            45.549898,
            282.096
          ],
          [
            5.006236,
            45.549934,
            281.396
          ],
          [
            5.006251,
            45.550001,
            279.975
          ],
          [
            5.006289,
            45.55007,
            278.459
          ],
          [
            5.006273,
            45.550139,
            277.332
          ],
          [
            5.006271,
            45.550173,
            276.735
          ],
          [
            5.006288,
            45.550185,
            276.396
          ],
          [
            5.006274,
            45.550268,
            275.003
          ],
          [
            5.006206,
            45.550297,
            274.945
          ],
          [
            5.006243,
            45.550511,
            270.097
          ],
          [
            5.006222,
            45.550539,
            269.938
          ],
          [
            5.0062,
            45.550654,
            266.536
          ],
          [
            5.006142,
            45.550743,
            264.585
          ],
          [
            5.006115,
            45.550832,
            261.964
          ],
          [
            5.006051,
            45.550876,
            261.204
          ],
          [
            5.006039,
            45.550953,
            259.073
          ],
          [
            5.006008,
            45.550996,
            258.058
          ],
          [
            5.005974,
            45.551106,
            255.134
          ],
          [
            5.005959,
            45.551239,
            253.254
          ],
          [
            5.005958,
            45.551334,
            251.893
          ],
          [
            5.005576,
            45.551784,
            248.194
          ],
          [
            5.005512,
            45.551861,
            247.202
          ],
          [
            5.005228,
            45.552186,
            244.261
          ],
          [
            5.005165,
            45.552259,
            243.735
          ],
          [
            5.004788,
            45.552716,
            241.222
          ],
          [
            5.004743,
            45.55276,
            241.064
          ],
          [
            5.004723,
            45.552787,
            241.0
          ],
          [
            5.004612,
            45.552897,
            241.0
          ],
          [
            5.004517,
            45.552929,
            241.0
          ],
          [
            5.004346,
            45.552963,
            240.646
          ],
          [
            5.004256,
            45.552987,
            240.322
          ],
          [
            5.004167,
            45.552994,
            240.001
          ],
          [
            5.004108,
            45.552965,
            240.0
          ],
          [
            5.004066,
            45.552908,
            240.0
          ],
          [
            5.004,
            45.552799,
            240.0
          ],
          [
            5.003784,
            45.552729,
            240.176
          ],
          [
            5.003355,
            45.552588,
            240.053
          ],
          [
            5.003307,
            45.552629,
            239.956
          ],
          [
            5.003257,
            45.552681,
            239.821
          ],
          [
            5.003218,
            45.552748,
            239.629
          ],
          [
            5.003163,
            45.552882,
            239.242
          ],
          [
            5.003155,
            45.552909,
            239.189
          ],
          [
            5.003123,
            45.553004,
            239.045
          ],
          [
            5.003075,
            45.553138,
            238.724
          ],
          [
            5.003021,
            45.553298,
            238.003
          ],
          [
            5.001601,
            45.553069,
            237.0
          ],
          [
            5.001385,
            45.553669,
            236.789
          ],
          [
            5.001421,
            45.553724,
            236.594
          ],
          [
            5.002746,
            45.55394,
            237.184
          ],
          [
            5.002772,
            45.553898,
            237.033
          ],
          [
            5.002813,
            45.553863,
            237.127
          ],
          [
            5.003023,
            45.553299,
            238.006
          ],
          [
            5.003519,
            45.553319,
            239.0
          ]
        ]
      }
    }
  ]
}
